{"type": "FeatureCollection", "attribution": "© Lantmäteriet, Markhöjdmodell Grid 1m (CC BY 4.0)", "features": [{"type": "Feature", "geometry": {"type": "LineString", "coordinates": [[12.7069206, 55.915642], [12.7069003, 55.9156452]]}, "properties": {"t": "fall", "g": 1, "loop": "S:t Ibb", "hole": 1, "slope_pct": 2.19, "bearing": 285.5}}, {"type": "Feature", "geometry": {"type": "LineString", "coordinates": [[12.7069685, 55.9156429], [12.706949, 55.9156512]]}, "properties": {"t": "fall", "g": 1, "loop": "S:t Ibb", "hole": 1, "slope_pct": 2.55, "bearing": 307.1}}, {"type": "Feature", "geometry": {"type": "LineString", "coordinates": [[12.7070165, 55.9156438], [12.7069903, 55.9156551]]}, "properties": {"t": "fall", "g": 1, "loop": "S:t Ibb", "hole": 1, "slope_pct": 3.43, "bearing": 307.5}}, {"type": "Feature", "geometry": {"type": "LineString", "coordinates": [[12.7070644, 55.9156447], [12.7070309, 55.915651]]}, "properties": {"t": "fall", "g": 1, "loop": "S:t Ibb", "hole": 1, "slope_pct": 3.68, "bearing": 288.5}}, {"type": "Feature", "geometry": {"type": "LineString", "coordinates": [[12.7071124, 55.9156456], [12.7070709, 55.9156403]]}, "properties": {"t": "fall", "g": 1, "loop": "S:t Ibb", "hole": 1, "slope_pct": 4.42, "bearing": 257.2}}, {"type": "Feature", "geometry": {"type": "LineString", "coordinates": [[12.7069222, 55.9156151], [12.7068968, 55.9156237]]}, "properties": {"t": "fall", "g": 1, "loop": "S:t Ibb", "hole": 1, "slope_pct": 3.08, "bearing": 301.2}}, {"type": "Feature", "geometry": {"type": "LineString", "coordinates": [[12.7069701, 55.915616], [12.7069437, 55.9156274]]}, "properties": {"t": "fall", "g": 1, "loop": "S:t Ibb", "hole": 1, "slope_pct": 3.47, "bearing": 307.7}}, {"type": "Feature", "geometry": {"type": "LineString", "coordinates": [[12.7070181, 55.9156169], [12.7069935, 55.915629]]}, "properties": {"t": "fall", "g": 1, "loop": "S:t Ibb", "hole": 1, "slope_pct": 3.4, "bearing": 311.4}}, {"type": "Feature", "geometry": {"type": "LineString", "coordinates": [[12.707066, 55.9156178], [12.7070385, 55.9156278]]}, "properties": {"t": "fall", "g": 1, "loop": "S:t Ibb", "hole": 1, "slope_pct": 3.41, "bearing": 302.9}}, {"type": "Feature", "geometry": {"type": "LineString", "coordinates": [[12.707114, 55.9156187], [12.7070883, 55.9156296]]}, "properties": {"t": "fall", "g": 1, "loop": "S:t Ibb", "hole": 1, "slope_pct": 3.35, "bearing": 307.1}}, {"type": "Feature", "geometry": {"type": "LineString", "coordinates": [[12.707162, 55.9156196], [12.7071139, 55.91562]]}, "properties": {"t": "fall", "g": 1, "loop": "S:t Ibb", "hole": 1, "slope_pct": 5.08, "bearing": 271.0}}, {"type": "Feature", "geometry": {"type": "LineString", "coordinates": [[12.7069237, 55.9155882], [12.7068953, 55.9156009]]}, "properties": {"t": "fall", "g": 1, "loop": "S:t Ibb", "hole": 1, "slope_pct": 3.79, "bearing": 308.6}}, {"type": "Feature", "geometry": {"type": "LineString", "coordinates": [[12.7069717, 55.9155891], [12.7069424, 55.9156031]]}, "properties": {"t": "fall", "g": 1, "loop": "S:t Ibb", "hole": 1, "slope_pct": 4.0, "bearing": 310.4}}, {"type": "Feature", "geometry": {"type": "LineString", "coordinates": [[12.7070197, 55.91559], [12.7070004, 55.9156021]]}, "properties": {"t": "fall", "g": 1, "loop": "S:t Ibb", "hole": 1, "slope_pct": 3.02, "bearing": 318.4}}, {"type": "Feature", "geometry": {"type": "LineString", "coordinates": [[12.7070676, 55.9155909], [12.7070412, 55.9156015]]}, "properties": {"t": "fall", "g": 1, "loop": "S:t Ibb", "hole": 1, "slope_pct": 3.38, "bearing": 305.7}}, {"type": "Feature", "geometry": {"type": "LineString", "coordinates": [[12.7071156, 55.9155917], [12.7070866, 55.9156033]]}, "properties": {"t": "fall", "g": 1, "loop": "S:t Ibb", "hole": 1, "slope_pct": 3.7, "bearing": 305.4}}, {"type": "Feature", "geometry": {"type": "LineString", "coordinates": [[12.7071635, 55.9155926], [12.7071379, 55.9156028]]}, "properties": {"t": "fall", "g": 1, "loop": "S:t Ibb", "hole": 1, "slope_pct": 3.26, "bearing": 305.1}}, {"type": "Feature", "geometry": {"type": "LineString", "coordinates": [[12.7072115, 55.9155935], [12.7071747, 55.9155946]]}, "properties": {"t": "fall", "g": 1, "loop": "S:t Ibb", "hole": 1, "slope_pct": 3.83, "bearing": 273.0}}, {"type": "Feature", "geometry": {"type": "LineString", "coordinates": [[12.7069253, 55.9155612], [12.7068914, 55.9155761]]}, "properties": {"t": "fall", "g": 1, "loop": "S:t Ibb", "hole": 1, "slope_pct": 4.48, "bearing": 308.0}}, {"type": "Feature", "geometry": {"type": "LineString", "coordinates": [[12.7069733, 55.9155621], [12.7069466, 55.9155764]]}, "properties": {"t": "fall", "g": 1, "loop": "S:t Ibb", "hole": 1, "slope_pct": 3.83, "bearing": 313.7}}, {"type": "Feature", "geometry": {"type": "LineString", "coordinates": [[12.7070213, 55.915563], [12.7070027, 55.9155762]]}, "properties": {"t": "fall", "g": 1, "loop": "S:t Ibb", "hole": 1, "slope_pct": 3.11, "bearing": 321.7}}, {"type": "Feature", "geometry": {"type": "LineString", "coordinates": [[12.7070692, 55.9155639], [12.7070426, 55.9155791]]}, "properties": {"t": "fall", "g": 1, "loop": "S:t Ibb", "hole": 1, "slope_pct": 3.95, "bearing": 315.5}}, {"type": "Feature", "geometry": {"type": "LineString", "coordinates": [[12.7071172, 55.9155648], [12.7070906, 55.9155774]]}, "properties": {"t": "fall", "g": 1, "loop": "S:t Ibb", "hole": 1, "slope_pct": 3.62, "bearing": 310.2}}, {"type": "Feature", "geometry": {"type": "LineString", "coordinates": [[12.7071651, 55.9155657], [12.7071387, 55.9155796]]}, "properties": {"t": "fall", "g": 1, "loop": "S:t Ibb", "hole": 1, "slope_pct": 3.76, "bearing": 313.2}}, {"type": "Feature", "geometry": {"type": "LineString", "coordinates": [[12.7072131, 55.9155666], [12.7071828, 55.9155821]]}, "properties": {"t": "fall", "g": 1, "loop": "S:t Ibb", "hole": 1, "slope_pct": 4.27, "bearing": 312.5}}, {"type": "Feature", "geometry": {"type": "LineString", "coordinates": [[12.7070228, 55.9155361], [12.7070034, 55.9155583]]}, "properties": {"t": "fall", "g": 1, "loop": "S:t Ibb", "hole": 1, "slope_pct": 4.59, "bearing": 333.9}}, {"type": "Feature", "geometry": {"type": "LineString", "coordinates": [[12.7070708, 55.915537], [12.7070464, 55.9155547]]}, "properties": {"t": "fall", "g": 1, "loop": "S:t Ibb", "hole": 1, "slope_pct": 4.15, "bearing": 322.2}}, {"type": "Feature", "geometry": {"type": "LineString", "coordinates": [[12.7071188, 55.9155379], [12.7070895, 55.9155562]]}, "properties": {"t": "fall", "g": 1, "loop": "S:t Ibb", "hole": 1, "slope_pct": 4.56, "bearing": 318.1}}, {"type": "Feature", "geometry": {"type": "LineString", "coordinates": [[12.7071667, 55.9155388], [12.7071416, 55.9155559]]}, "properties": {"t": "fall", "g": 1, "loop": "S:t Ibb", "hole": 1, "slope_pct": 4.11, "bearing": 320.7}}, {"type": "Feature", "geometry": {"type": "LineString", "coordinates": [[12.7072147, 55.9155397], [12.7071789, 55.9155577]]}, "properties": {"t": "fall", "g": 1, "loop": "S:t Ibb", "hole": 1, "slope_pct": 6.49, "bearing": 311.9}}, {"type": "Feature", "geometry": {"type": "LineString", "coordinates": [[12.7070724, 55.9155101], [12.7070691, 55.9155369]]}, "properties": {"t": "fall", "g": 1, "loop": "S:t Ibb", "hole": 1, "slope_pct": 8.8, "bearing": 356.0}}, {"type": "Feature", "geometry": {"type": "LineString", "coordinates": [[12.7071204, 55.9155109], [12.7071055, 55.9155366]]}, "properties": {"t": "fall", "g": 1, "loop": "S:t Ibb", "hole": 1, "slope_pct": 6.13, "bearing": 342.1}}, {"type": "Feature", "geometry": {"type": "LineString", "coordinates": [[12.7071683, 55.9155118], [12.707143, 55.9155348]]}, "properties": {"t": "fall", "g": 1, "loop": "S:t Ibb", "hole": 1, "slope_pct": 5.04, "bearing": 328.3}}, {"type": "Feature", "geometry": {"type": "Point", "coordinates": [12.7070607, 55.9155829]}, "properties": {"t": "aim", "g": 1, "loop": "S:t Ibb", "hole": 1, "aim_bearing": 311.8, "slope_median": 3.79, "slope_max": 8.8, "n_cells": 33}}, {"type": "Feature", "geometry": {"type": "LineString", "coordinates": [[12.7047963, 55.914488], [12.704763, 55.9144908]]}, "properties": {"t": "fall", "g": 2, "loop": "S:t Ibb", "hole": 2, "slope_pct": 3.5, "bearing": 278.7}}, {"type": "Feature", "geometry": {"type": "LineString", "coordinates": [[12.7048442, 55.9144889], [12.7048111, 55.9144919]]}, "properties": {"t": "fall", "g": 2, "loop": "S:t Ibb", "hole": 2, "slope_pct": 3.49, "bearing": 279.2}}, {"type": "Feature", "geometry": {"type": "LineString", "coordinates": [[12.7048922, 55.9144898], [12.7048593, 55.9144917]]}, "properties": {"t": "fall", "g": 2, "loop": "S:t Ibb", "hole": 2, "slope_pct": 3.44, "bearing": 276.0}}, {"type": "Feature", "geometry": {"type": "LineString", "coordinates": [[12.7049401, 55.9144907], [12.7048985, 55.9144934]]}, "properties": {"t": "fall", "g": 2, "loop": "S:t Ibb", "hole": 2, "slope_pct": 4.35, "bearing": 276.6}}, {"type": "Feature", "geometry": {"type": "LineString", "coordinates": [[12.7049881, 55.9144916], [12.7049432, 55.9144927]]}, "properties": {"t": "fall", "g": 2, "loop": "S:t Ibb", "hole": 2, "slope_pct": 4.67, "bearing": 272.7}}, {"type": "Feature", "geometry": {"type": "LineString", "coordinates": [[12.7047499, 55.9144601], [12.7047045, 55.9144634]]}, "properties": {"t": "fall", "g": 2, "loop": "S:t Ibb", "hole": 2, "slope_pct": 4.76, "bearing": 277.2}}, {"type": "Feature", "geometry": {"type": "LineString", "coordinates": [[12.7047978, 55.914461], [12.7047655, 55.9144642]]}, "properties": {"t": "fall", "g": 2, "loop": "S:t Ibb", "hole": 2, "slope_pct": 3.42, "bearing": 279.9}}, {"type": "Feature", "geometry": {"type": "LineString", "coordinates": [[12.7048458, 55.9144619], [12.7048125, 55.9144647]]}, "properties": {"t": "fall", "g": 2, "loop": "S:t Ibb", "hole": 2, "slope_pct": 3.5, "bearing": 278.6}}, {"type": "Feature", "geometry": {"type": "LineString", "coordinates": [[12.7048938, 55.9144628], [12.7048582, 55.9144685]]}, "properties": {"t": "fall", "g": 2, "loop": "S:t Ibb", "hole": 2, "slope_pct": 3.84, "bearing": 285.9}}, {"type": "Feature", "geometry": {"type": "LineString", "coordinates": [[12.7049417, 55.9144637], [12.7049006, 55.9144708]]}, "properties": {"t": "fall", "g": 2, "loop": "S:t Ibb", "hole": 2, "slope_pct": 4.47, "bearing": 287.2}}, {"type": "Feature", "geometry": {"type": "LineString", "coordinates": [[12.7049897, 55.9144646], [12.7049489, 55.9144701]]}, "properties": {"t": "fall", "g": 2, "loop": "S:t Ibb", "hole": 2, "slope_pct": 4.36, "bearing": 283.6}}, {"type": "Feature", "geometry": {"type": "LineString", "coordinates": [[12.7047515, 55.9144332], [12.7047131, 55.9144391]]}, "properties": {"t": "fall", "g": 2, "loop": "S:t Ibb", "hole": 2, "slope_pct": 4.14, "bearing": 285.3}}, {"type": "Feature", "geometry": {"type": "LineString", "coordinates": [[12.7047994, 55.9144341], [12.7047706, 55.9144366]]}, "properties": {"t": "fall", "g": 2, "loop": "S:t Ibb", "hole": 2, "slope_pct": 3.03, "bearing": 278.8}}, {"type": "Feature", "geometry": {"type": "LineString", "coordinates": [[12.7048474, 55.914435], [12.7048138, 55.9144362]]}, "properties": {"t": "fall", "g": 2, "loop": "S:t Ibb", "hole": 2, "slope_pct": 3.5, "bearing": 273.7}}, {"type": "Feature", "geometry": {"type": "LineString", "coordinates": [[12.7048954, 55.9144359], [12.7048548, 55.914437]]}, "properties": {"t": "fall", "g": 2, "loop": "S:t Ibb", "hole": 2, "slope_pct": 4.22, "bearing": 272.7}}, {"type": "Feature", "geometry": {"type": "LineString", "coordinates": [[12.7049433, 55.9144368], [12.7049036, 55.9144396]]}, "properties": {"t": "fall", "g": 2, "loop": "S:t Ibb", "hole": 2, "slope_pct": 4.17, "bearing": 277.1}}, {"type": "Feature", "geometry": {"type": "LineString", "coordinates": [[12.7049913, 55.9144377], [12.7049495, 55.9144421]]}, "properties": {"t": "fall", "g": 2, "loop": "S:t Ibb", "hole": 2, "slope_pct": 4.43, "bearing": 280.8}}, {"type": "Feature", "geometry": {"type": "LineString", "coordinates": [[12.7050392, 55.9144386], [12.7049926, 55.9144435]]}, "properties": {"t": "fall", "g": 2, "loop": "S:t Ibb", "hole": 2, "slope_pct": 4.94, "bearing": 280.7}}, {"type": "Feature", "geometry": {"type": "LineString", "coordinates": [[12.7047051, 55.9144054], [12.7046892, 55.9144183]]}, "properties": {"t": "fall", "g": 2, "loop": "S:t Ibb", "hole": 2, "slope_pct": 2.92, "bearing": 325.4}}, {"type": "Feature", "geometry": {"type": "LineString", "coordinates": [[12.7047531, 55.9144063], [12.704729, 55.9144143]]}, "properties": {"t": "fall", "g": 2, "loop": "S:t Ibb", "hole": 2, "slope_pct": 2.91, "bearing": 300.9}}, {"type": "Feature", "geometry": {"type": "LineString", "coordinates": [[12.704801, 55.9144072], [12.7047778, 55.9144083]]}, "properties": {"t": "fall", "g": 2, "loop": "S:t Ibb", "hole": 2, "slope_pct": 2.42, "bearing": 274.8}}, {"type": "Feature", "geometry": {"type": "LineString", "coordinates": [[12.704849, 55.9144081], [12.7048123, 55.9144096]]}, "properties": {"t": "fall", "g": 2, "loop": "S:t Ibb", "hole": 2, "slope_pct": 3.82, "bearing": 274.3}}, {"type": "Feature", "geometry": {"type": "LineString", "coordinates": [[12.7048969, 55.914409], [12.7048561, 55.9144121]]}, "properties": {"t": "fall", "g": 2, "loop": "S:t Ibb", "hole": 2, "slope_pct": 4.29, "bearing": 277.9}}, {"type": "Feature", "geometry": {"type": "LineString", "coordinates": [[12.7049449, 55.9144099], [12.7049035, 55.9144114]]}, "properties": {"t": "fall", "g": 2, "loop": "S:t Ibb", "hole": 2, "slope_pct": 4.32, "bearing": 273.7}}, {"type": "Feature", "geometry": {"type": "LineString", "coordinates": [[12.7049929, 55.9144108], [12.7049465, 55.9144135]]}, "properties": {"t": "fall", "g": 2, "loop": "S:t Ibb", "hole": 2, "slope_pct": 4.85, "bearing": 275.9}}, {"type": "Feature", "geometry": {"type": "LineString", "coordinates": [[12.7050408, 55.9144116], [12.7049937, 55.914417]]}, "properties": {"t": "fall", "g": 2, "loop": "S:t Ibb", "hole": 2, "slope_pct": 5.1, "bearing": 281.4}}, {"type": "Feature", "geometry": {"type": "LineString", "coordinates": [[12.7047067, 55.9143785], [12.7046909, 55.9143874]]}, "properties": {"t": "fall", "g": 2, "loop": "S:t Ibb", "hole": 2, "slope_pct": 2.33, "bearing": 315.3}}, {"type": "Feature", "geometry": {"type": "LineString", "coordinates": [[12.7047547, 55.9143793], [12.7047427, 55.9143816]]}, "properties": {"t": "fall", "g": 2, "loop": "S:t Ibb", "hole": 2, "slope_pct": 1.31, "bearing": 288.7}}, {"type": "Feature", "geometry": {"type": "LineString", "coordinates": [[12.7048026, 55.9143802], [12.7047835, 55.9143799]]}, "properties": {"t": "fall", "g": 2, "loop": "S:t Ibb", "hole": 2, "slope_pct": 1.99, "bearing": 268.3}}, {"type": "Feature", "geometry": {"type": "LineString", "coordinates": [[12.7048506, 55.9143811], [12.7048083, 55.9143831]]}, "properties": {"t": "fall", "g": 2, "loop": "S:t Ibb", "hole": 2, "slope_pct": 4.42, "bearing": 274.8}}, {"type": "Feature", "geometry": {"type": "LineString", "coordinates": [[12.7048985, 55.914382], [12.7048587, 55.9143853]]}, "properties": {"t": "fall", "g": 2, "loop": "S:t Ibb", "hole": 2, "slope_pct": 4.19, "bearing": 278.3}}, {"type": "Feature", "geometry": {"type": "LineString", "coordinates": [[12.7049465, 55.9143829], [12.7049059, 55.9143856]]}, "properties": {"t": "fall", "g": 2, "loop": "S:t Ibb", "hole": 2, "slope_pct": 4.25, "bearing": 276.6}}, {"type": "Feature", "geometry": {"type": "LineString", "coordinates": [[12.7049945, 55.9143838], [12.704947, 55.9143881]]}, "properties": {"t": "fall", "g": 2, "loop": "S:t Ibb", "hole": 2, "slope_pct": 5.37, "bearing": 279.2}}, {"type": "Feature", "geometry": {"type": "LineString", "coordinates": [[12.7047083, 55.9143515], [12.7047005, 55.9143647]]}, "properties": {"t": "fall", "g": 2, "loop": "S:t Ibb", "hole": 2, "slope_pct": 2.59, "bearing": 341.6}}, {"type": "Feature", "geometry": {"type": "LineString", "coordinates": [[12.7047563, 55.9143524], [12.7047587, 55.9143569]]}, "properties": {"t": "fall", "g": 2, "loop": "S:t Ibb", "hole": 2, "slope_pct": 0.86, "bearing": 17.1}}, {"type": "Feature", "geometry": {"type": "LineString", "coordinates": [[12.7048042, 55.9143533], [12.7047777, 55.9143552]]}, "properties": {"t": "fall", "g": 2, "loop": "S:t Ibb", "hole": 2, "slope_pct": 2.78, "bearing": 277.3}}, {"type": "Feature", "geometry": {"type": "LineString", "coordinates": [[12.7048522, 55.9143542], [12.7048099, 55.9143582]]}, "properties": {"t": "fall", "g": 2, "loop": "S:t Ibb", "hole": 2, "slope_pct": 4.46, "bearing": 279.5}}, {"type": "Feature", "geometry": {"type": "LineString", "coordinates": [[12.7049001, 55.9143551], [12.7048626, 55.9143562]]}, "properties": {"t": "fall", "g": 2, "loop": "S:t Ibb", "hole": 2, "slope_pct": 3.91, "bearing": 273.0}}, {"type": "Feature", "geometry": {"type": "LineString", "coordinates": [[12.7049481, 55.914356], [12.7049024, 55.914361]]}, "properties": {"t": "fall", "g": 2, "loop": "S:t Ibb", "hole": 2, "slope_pct": 4.85, "bearing": 281.1}}, {"type": "Feature", "geometry": {"type": "LineString", "coordinates": [[12.7047099, 55.9143246], [12.7047011, 55.9143433]]}, "properties": {"t": "fall", "g": 2, "loop": "S:t Ibb", "hole": 2, "slope_pct": 3.58, "bearing": 345.2}}, {"type": "Feature", "geometry": {"type": "LineString", "coordinates": [[12.7047578, 55.9143255], [12.7047793, 55.9143449]]}, "properties": {"t": "fall", "g": 2, "loop": "S:t Ibb", "hole": 2, "slope_pct": 4.23, "bearing": 31.8}}, {"type": "Feature", "geometry": {"type": "LineString", "coordinates": [[12.7048058, 55.9143264], [12.7047805, 55.9143351]]}, "properties": {"t": "fall", "g": 2, "loop": "S:t Ibb", "hole": 2, "slope_pct": 3.09, "bearing": 301.6}}, {"type": "Feature", "geometry": {"type": "Point", "coordinates": [12.7048577, 55.9144113]}, "properties": {"t": "aim", "g": 2, "loop": "S:t Ibb", "hole": 2, "aim_bearing": 284.7, "slope_median": 4.02, "slope_max": 5.37, "n_cells": 42}}, {"type": "Feature", "geometry": {"type": "LineString", "coordinates": [[12.7020035, 55.91138], [12.7019839, 55.9114046]]}, "properties": {"t": "fall", "g": 3, "loop": "S:t Ibb", "hole": 3, "slope_pct": 6.74, "bearing": 335.9}}, {"type": "Feature", "geometry": {"type": "LineString", "coordinates": [[12.7020515, 55.9113809], [12.7020497, 55.9113975]]}, "properties": {"t": "fall", "g": 3, "loop": "S:t Ibb", "hole": 3, "slope_pct": 3.08, "bearing": 356.4}}, {"type": "Feature", "geometry": {"type": "LineString", "coordinates": [[12.7020994, 55.9113818], [12.7020906, 55.9113948]]}, "properties": {"t": "fall", "g": 3, "loop": "S:t Ibb", "hole": 3, "slope_pct": 2.58, "bearing": 339.0}}, {"type": "Feature", "geometry": {"type": "LineString", "coordinates": [[12.7021474, 55.9113827], [12.7021342, 55.9113955]]}, "properties": {"t": "fall", "g": 3, "loop": "S:t Ibb", "hole": 3, "slope_pct": 2.74, "bearing": 329.9}}, {"type": "Feature", "geometry": {"type": "LineString", "coordinates": [[12.7020051, 55.9113531], [12.702014, 55.9113645]]}, "properties": {"t": "fall", "g": 3, "loop": "S:t Ibb", "hole": 3, "slope_pct": 2.31, "bearing": 23.5}}, {"type": "Feature", "geometry": {"type": "LineString", "coordinates": [[12.7020531, 55.911354], [12.7020529, 55.9113635]]}, "properties": {"t": "fall", "g": 3, "loop": "S:t Ibb", "hole": 3, "slope_pct": 1.76, "bearing": 359.5}}, {"type": "Feature", "geometry": {"type": "LineString", "coordinates": [[12.702101, 55.9113549], [12.7020963, 55.9113643]]}, "properties": {"t": "fall", "g": 3, "loop": "S:t Ibb", "hole": 3, "slope_pct": 1.82, "bearing": 344.2}}, {"type": "Feature", "geometry": {"type": "LineString", "coordinates": [[12.702149, 55.9113558], [12.7021377, 55.9113631]]}, "properties": {"t": "fall", "g": 3, "loop": "S:t Ibb", "hole": 3, "slope_pct": 1.79, "bearing": 318.9}}, {"type": "Feature", "geometry": {"type": "LineString", "coordinates": [[12.7021969, 55.9113567], [12.702172, 55.9113634]]}, "properties": {"t": "fall", "g": 3, "loop": "S:t Ibb", "hole": 3, "slope_pct": 2.88, "bearing": 295.7}}, {"type": "Feature", "geometry": {"type": "LineString", "coordinates": [[12.7020067, 55.9113262], [12.7020217, 55.9113345]]}, "properties": {"t": "fall", "g": 3, "loop": "S:t Ibb", "hole": 3, "slope_pct": 2.2, "bearing": 45.1}}, {"type": "Feature", "geometry": {"type": "LineString", "coordinates": [[12.7020547, 55.9113271], [12.7020541, 55.9113365]]}, "properties": {"t": "fall", "g": 3, "loop": "S:t Ibb", "hole": 3, "slope_pct": 1.75, "bearing": 358.0}}, {"type": "Feature", "geometry": {"type": "LineString", "coordinates": [[12.7021026, 55.911328], [12.7020991, 55.9113371]]}, "properties": {"t": "fall", "g": 3, "loop": "S:t Ibb", "hole": 3, "slope_pct": 1.73, "bearing": 347.8}}, {"type": "Feature", "geometry": {"type": "LineString", "coordinates": [[12.7021506, 55.9113289], [12.7021418, 55.9113372]]}, "properties": {"t": "fall", "g": 3, "loop": "S:t Ibb", "hole": 3, "slope_pct": 1.79, "bearing": 329.3}}, {"type": "Feature", "geometry": {"type": "LineString", "coordinates": [[12.7021985, 55.9113298], [12.702177, 55.911335]]}, "properties": {"t": "fall", "g": 3, "loop": "S:t Ibb", "hole": 3, "slope_pct": 2.44, "bearing": 293.6}}, {"type": "Feature", "geometry": {"type": "LineString", "coordinates": [[12.7020083, 55.9112992], [12.7020173, 55.9113074]]}, "properties": {"t": "fall", "g": 3, "loop": "S:t Ibb", "hole": 3, "slope_pct": 1.77, "bearing": 31.6}}, {"type": "Feature", "geometry": {"type": "LineString", "coordinates": [[12.7020563, 55.9113001], [12.7020544, 55.9113109]]}, "properties": {"t": "fall", "g": 3, "loop": "S:t Ibb", "hole": 3, "slope_pct": 2.0, "bearing": 354.3}}, {"type": "Feature", "geometry": {"type": "LineString", "coordinates": [[12.7021042, 55.911301], [12.7020998, 55.9113124]]}, "properties": {"t": "fall", "g": 3, "loop": "S:t Ibb", "hole": 3, "slope_pct": 2.16, "bearing": 347.5}}, {"type": "Feature", "geometry": {"type": "LineString", "coordinates": [[12.7021522, 55.9113019], [12.7021469, 55.911313]]}, "properties": {"t": "fall", "g": 3, "loop": "S:t Ibb", "hole": 3, "slope_pct": 2.12, "bearing": 344.9}}, {"type": "Feature", "geometry": {"type": "LineString", "coordinates": [[12.7022001, 55.9113028], [12.7021892, 55.9113136]]}, "properties": {"t": "fall", "g": 3, "loop": "S:t Ibb", "hole": 3, "slope_pct": 2.3, "bearing": 330.3}}, {"type": "Feature", "geometry": {"type": "LineString", "coordinates": [[12.7020579, 55.9112732], [12.7020579, 55.9112831]]}, "properties": {"t": "fall", "g": 3, "loop": "S:t Ibb", "hole": 3, "slope_pct": 1.83, "bearing": 360.0}}, {"type": "Feature", "geometry": {"type": "LineString", "coordinates": [[12.7021058, 55.9112741], [12.7020997, 55.911285]]}, "properties": {"t": "fall", "g": 3, "loop": "S:t Ibb", "hole": 3, "slope_pct": 2.11, "bearing": 342.5}}, {"type": "Feature", "geometry": {"type": "LineString", "coordinates": [[12.7021538, 55.911275], [12.7021475, 55.9112876]]}, "properties": {"t": "fall", "g": 3, "loop": "S:t Ibb", "hole": 3, "slope_pct": 2.42, "bearing": 344.4}}, {"type": "Feature", "geometry": {"type": "LineString", "coordinates": [[12.7022017, 55.9112759], [12.7021921, 55.9112863]]}, "properties": {"t": "fall", "g": 3, "loop": "S:t Ibb", "hole": 3, "slope_pct": 2.18, "bearing": 332.5}}, {"type": "Feature", "geometry": {"type": "LineString", "coordinates": [[12.7020595, 55.9112463], [12.7020553, 55.9112551]]}, "properties": {"t": "fall", "g": 3, "loop": "S:t Ibb", "hole": 3, "slope_pct": 1.69, "bearing": 345.3}}, {"type": "Feature", "geometry": {"type": "LineString", "coordinates": [[12.7021074, 55.9112472], [12.7020995, 55.9112562]]}, "properties": {"t": "fall", "g": 3, "loop": "S:t Ibb", "hole": 3, "slope_pct": 1.87, "bearing": 334.0}}, {"type": "Feature", "geometry": {"type": "LineString", "coordinates": [[12.7021554, 55.9112481], [12.7021491, 55.9112578]]}, "properties": {"t": "fall", "g": 3, "loop": "S:t Ibb", "hole": 3, "slope_pct": 1.91, "bearing": 340.2}}, {"type": "Feature", "geometry": {"type": "LineString", "coordinates": [[12.7022033, 55.911249], [12.7021821, 55.9112634]]}, "properties": {"t": "fall", "g": 3, "loop": "S:t Ibb", "hole": 3, "slope_pct": 3.48, "bearing": 320.5}}, {"type": "Feature", "geometry": {"type": "LineString", "coordinates": [[12.7020611, 55.9112193], [12.7020547, 55.9112286]]}, "properties": {"t": "fall", "g": 3, "loop": "S:t Ibb", "hole": 3, "slope_pct": 1.84, "bearing": 338.9}}, {"type": "Feature", "geometry": {"type": "LineString", "coordinates": [[12.702109, 55.9112202], [12.7021011, 55.9112296]]}, "properties": {"t": "fall", "g": 3, "loop": "S:t Ibb", "hole": 3, "slope_pct": 1.92, "bearing": 334.5}}, {"type": "Feature", "geometry": {"type": "LineString", "coordinates": [[12.702157, 55.9112211], [12.7021452, 55.9112304]]}, "properties": {"t": "fall", "g": 3, "loop": "S:t Ibb", "hole": 3, "slope_pct": 2.12, "bearing": 324.6}}, {"type": "Feature", "geometry": {"type": "LineString", "coordinates": [[12.7022049, 55.911222], [12.7021823, 55.9112299]]}, "properties": {"t": "fall", "g": 3, "loop": "S:t Ibb", "hole": 3, "slope_pct": 2.77, "bearing": 301.8}}, {"type": "Feature", "geometry": {"type": "LineString", "coordinates": [[12.7020627, 55.9111924], [12.7020654, 55.9112121]]}, "properties": {"t": "fall", "g": 3, "loop": "S:t Ibb", "hole": 3, "slope_pct": 3.67, "bearing": 4.4}}, {"type": "Feature", "geometry": {"type": "LineString", "coordinates": [[12.7021106, 55.9111933], [12.7021077, 55.9112072]]}, "properties": {"t": "fall", "g": 3, "loop": "S:t Ibb", "hole": 3, "slope_pct": 2.59, "bearing": 353.3}}, {"type": "Feature", "geometry": {"type": "LineString", "coordinates": [[12.7021586, 55.9111942], [12.7021523, 55.9112027]]}, "properties": {"t": "fall", "g": 3, "loop": "S:t Ibb", "hole": 3, "slope_pct": 1.71, "bearing": 337.6}}, {"type": "Feature", "geometry": {"type": "LineString", "coordinates": [[12.7022065, 55.9111951], [12.7021887, 55.9111999]]}, "properties": {"t": "fall", "g": 3, "loop": "S:t Ibb", "hole": 3, "slope_pct": 2.06, "bearing": 295.6}}, {"type": "Feature", "geometry": {"type": "LineString", "coordinates": [[12.7020642, 55.9111655], [12.7020692, 55.9111923]]}, "properties": {"t": "fall", "g": 3, "loop": "S:t Ibb", "hole": 3, "slope_pct": 5.66, "bearing": 5.9}}, {"type": "Feature", "geometry": {"type": "LineString", "coordinates": [[12.7021122, 55.9111664], [12.7021225, 55.9111927]]}, "properties": {"t": "fall", "g": 3, "loop": "S:t Ibb", "hole": 3, "slope_pct": 5.79, "bearing": 12.4}}, {"type": "Feature", "geometry": {"type": "LineString", "coordinates": [[12.7021602, 55.9111673], [12.7021663, 55.9111874]]}, "properties": {"t": "fall", "g": 3, "loop": "S:t Ibb", "hole": 3, "slope_pct": 3.8, "bearing": 9.7}}, {"type": "Feature", "geometry": {"type": "Point", "coordinates": [12.7021146, 55.9112877]}, "properties": {"t": "aim", "g": 3, "loop": "S:t Ibb", "hole": 3, "aim_bearing": 344.6, "slope_median": 2.14, "slope_max": 6.74, "n_cells": 38}}, {"type": "Feature", "geometry": {"type": "LineString", "coordinates": [[12.7030175, 55.9142571], [12.7030393, 55.9142523]]}, "properties": {"t": "fall", "g": 4, "loop": "S:t Ibb", "hole": 4, "slope_pct": 2.43, "bearing": 111.3}}, {"type": "Feature", "geometry": {"type": "LineString", "coordinates": [[12.7030655, 55.914258], [12.7030702, 55.9142596]]}, "properties": {"t": "fall", "g": 4, "loop": "S:t Ibb", "hole": 4, "slope_pct": 0.58, "bearing": 57.8}}, {"type": "Feature", "geometry": {"type": "LineString", "coordinates": [[12.7031134, 55.9142589], [12.7031102, 55.9142642]]}, "properties": {"t": "fall", "g": 4, "loop": "S:t Ibb", "hole": 4, "slope_pct": 1.05, "bearing": 341.1}}, {"type": "Feature", "geometry": {"type": "LineString", "coordinates": [[12.7031614, 55.9142598], [12.703156, 55.9142614]]}, "properties": {"t": "fall", "g": 4, "loop": "S:t Ibb", "hole": 4, "slope_pct": 0.64, "bearing": 298.8}}, {"type": "Feature", "geometry": {"type": "LineString", "coordinates": [[12.7030191, 55.9142301], [12.7030355, 55.9142318]]}, "properties": {"t": "fall", "g": 4, "loop": "S:t Ibb", "hole": 4, "slope_pct": 1.73, "bearing": 79.9}}, {"type": "Feature", "geometry": {"type": "LineString", "coordinates": [[12.7030207, 55.9142032], [12.7030409, 55.9142076]]}, "properties": {"t": "fall", "g": 4, "loop": "S:t Ibb", "hole": 4, "slope_pct": 2.26, "bearing": 68.6}}, {"type": "Feature", "geometry": {"type": "LineString", "coordinates": [[12.7030687, 55.9142041], [12.7030721, 55.9142072]]}, "properties": {"t": "fall", "g": 4, "loop": "S:t Ibb", "hole": 4, "slope_pct": 0.67, "bearing": 31.9}}, {"type": "Feature", "geometry": {"type": "LineString", "coordinates": [[12.7031166, 55.914205], [12.7031141, 55.9142077]]}, "properties": {"t": "fall", "g": 4, "loop": "S:t Ibb", "hole": 4, "slope_pct": 0.56, "bearing": 331.7}}, {"type": "Feature", "geometry": {"type": "LineString", "coordinates": [[12.7031646, 55.9142059], [12.703156, 55.9142118]]}, "properties": {"t": "fall", "g": 4, "loop": "S:t Ibb", "hole": 4, "slope_pct": 1.41, "bearing": 320.9}}, {"type": "Feature", "geometry": {"type": "LineString", "coordinates": [[12.7032125, 55.9142068], [12.7032111, 55.914214]]}, "properties": {"t": "fall", "g": 4, "loop": "S:t Ibb", "hole": 4, "slope_pct": 1.34, "bearing": 353.6}}, {"type": "Feature", "geometry": {"type": "LineString", "coordinates": [[12.7030223, 55.9141763], [12.7030389, 55.9141761]]}, "properties": {"t": "fall", "g": 4, "loop": "S:t Ibb", "hole": 4, "slope_pct": 1.73, "bearing": 90.8}}, {"type": "Feature", "geometry": {"type": "LineString", "coordinates": [[12.7030703, 55.9141772], [12.7030706, 55.9141809]]}, "properties": {"t": "fall", "g": 4, "loop": "S:t Ibb", "hole": 4, "slope_pct": 0.69, "bearing": 2.6}}, {"type": "Feature", "geometry": {"type": "LineString", "coordinates": [[12.7031182, 55.9141781], [12.7031141, 55.9141832]]}, "properties": {"t": "fall", "g": 4, "loop": "S:t Ibb", "hole": 4, "slope_pct": 1.05, "bearing": 335.6}}, {"type": "Feature", "geometry": {"type": "LineString", "coordinates": [[12.7031662, 55.914179], [12.7031527, 55.9141829]]}, "properties": {"t": "fall", "g": 4, "loop": "S:t Ibb", "hole": 4, "slope_pct": 1.58, "bearing": 297.6}}, {"type": "Feature", "geometry": {"type": "LineString", "coordinates": [[12.7030239, 55.9141493], [12.7030275, 55.9141533]]}, "properties": {"t": "fall", "g": 4, "loop": "S:t Ibb", "hole": 4, "slope_pct": 0.82, "bearing": 27.4}}, {"type": "Feature", "geometry": {"type": "LineString", "coordinates": [[12.7030719, 55.9141502], [12.7030703, 55.9141572]]}, "properties": {"t": "fall", "g": 4, "loop": "S:t Ibb", "hole": 4, "slope_pct": 1.3, "bearing": 352.8}}, {"type": "Feature", "geometry": {"type": "LineString", "coordinates": [[12.7031198, 55.9141511], [12.7031193, 55.9141556]]}, "properties": {"t": "fall", "g": 4, "loop": "S:t Ibb", "hole": 4, "slope_pct": 0.84, "bearing": 356.4}}, {"type": "Feature", "geometry": {"type": "LineString", "coordinates": [[12.7030255, 55.9141224], [12.7030252, 55.9141311]]}, "properties": {"t": "fall", "g": 4, "loop": "S:t Ibb", "hole": 4, "slope_pct": 1.6, "bearing": 359.0}}, {"type": "Feature", "geometry": {"type": "LineString", "coordinates": [[12.7030735, 55.9141233], [12.7030763, 55.9141283]]}, "properties": {"t": "fall", "g": 4, "loop": "S:t Ibb", "hole": 4, "slope_pct": 0.98, "bearing": 17.8}}, {"type": "Feature", "geometry": {"type": "LineString", "coordinates": [[12.7031214, 55.9141242], [12.7031268, 55.9141273]]}, "properties": {"t": "fall", "g": 4, "loop": "S:t Ibb", "hole": 4, "slope_pct": 0.8, "bearing": 44.1}}, {"type": "Feature", "geometry": {"type": "LineString", "coordinates": [[12.7030271, 55.9140955], [12.7030322, 55.914111]]}, "properties": {"t": "fall", "g": 4, "loop": "S:t Ibb", "hole": 4, "slope_pct": 2.92, "bearing": 10.4}}, {"type": "Feature", "geometry": {"type": "LineString", "coordinates": [[12.7030751, 55.9140964], [12.7030802, 55.9141103]]}, "properties": {"t": "fall", "g": 4, "loop": "S:t Ibb", "hole": 4, "slope_pct": 2.65, "bearing": 11.7}}, {"type": "Feature", "geometry": {"type": "LineString", "coordinates": [[12.703123, 55.9140973], [12.703129, 55.914112]]}, "properties": {"t": "fall", "g": 4, "loop": "S:t Ibb", "hole": 4, "slope_pct": 2.8, "bearing": 12.9}}, {"type": "Feature", "geometry": {"type": "Point", "coordinates": [12.7030919, 55.9141821]}, "properties": {"t": "aim", "g": 4, "loop": "S:t Ibb", "hole": 4, "aim_bearing": 16.8, "slope_median": 1.05, "slope_max": 2.92, "n_cells": 27}}, {"type": "Feature", "geometry": {"type": "LineString", "coordinates": [[12.7029471, 55.911119], [12.7029555, 55.911131]]}, "properties": {"t": "fall", "g": 5, "loop": "S:t Ibb", "hole": 5, "slope_pct": 2.39, "bearing": 21.5}}, {"type": "Feature", "geometry": {"type": "LineString", "coordinates": [[12.7029951, 55.9111199], [12.7029983, 55.911133]]}, "properties": {"t": "fall", "g": 5, "loop": "S:t Ibb", "hole": 5, "slope_pct": 2.45, "bearing": 7.8}}, {"type": "Feature", "geometry": {"type": "LineString", "coordinates": [[12.703043, 55.9111208], [12.7030511, 55.9111351]]}, "properties": {"t": "fall", "g": 5, "loop": "S:t Ibb", "hole": 5, "slope_pct": 2.78, "bearing": 17.5}}, {"type": "Feature", "geometry": {"type": "LineString", "coordinates": [[12.7029487, 55.9110921], [12.7029509, 55.9111042]]}, "properties": {"t": "fall", "g": 5, "loop": "S:t Ibb", "hole": 5, "slope_pct": 2.25, "bearing": 5.9}}, {"type": "Feature", "geometry": {"type": "LineString", "coordinates": [[12.7029966, 55.911093], [12.7029993, 55.9111078]]}, "properties": {"t": "fall", "g": 5, "loop": "S:t Ibb", "hole": 5, "slope_pct": 2.76, "bearing": 5.8}}, {"type": "Feature", "geometry": {"type": "LineString", "coordinates": [[12.7030446, 55.9110939], [12.703053, 55.9111085]]}, "properties": {"t": "fall", "g": 5, "loop": "S:t Ibb", "hole": 5, "slope_pct": 2.85, "bearing": 18.0}}, {"type": "Feature", "geometry": {"type": "LineString", "coordinates": [[12.7030926, 55.9110948], [12.7030932, 55.9111075]]}, "properties": {"t": "fall", "g": 5, "loop": "S:t Ibb", "hole": 5, "slope_pct": 2.37, "bearing": 1.7}}, {"type": "Feature", "geometry": {"type": "LineString", "coordinates": [[12.7029023, 55.9110643], [12.7029024, 55.911075]]}, "properties": {"t": "fall", "g": 5, "loop": "S:t Ibb", "hole": 5, "slope_pct": 1.99, "bearing": 0.1}}, {"type": "Feature", "geometry": {"type": "LineString", "coordinates": [[12.7029503, 55.9110652], [12.7029488, 55.9110762]]}, "properties": {"t": "fall", "g": 5, "loop": "S:t Ibb", "hole": 5, "slope_pct": 2.06, "bearing": 355.8}}, {"type": "Feature", "geometry": {"type": "LineString", "coordinates": [[12.7029982, 55.9110661], [12.7029985, 55.9110784]]}, "properties": {"t": "fall", "g": 5, "loop": "S:t Ibb", "hole": 5, "slope_pct": 2.3, "bearing": 0.7}}, {"type": "Feature", "geometry": {"type": "LineString", "coordinates": [[12.7030462, 55.911067], [12.7030532, 55.9110814]]}, "properties": {"t": "fall", "g": 5, "loop": "S:t Ibb", "hole": 5, "slope_pct": 2.77, "bearing": 15.2}}, {"type": "Feature", "geometry": {"type": "LineString", "coordinates": [[12.7030941, 55.9110678], [12.7031043, 55.9110804]]}, "properties": {"t": "fall", "g": 5, "loop": "S:t Ibb", "hole": 5, "slope_pct": 2.57, "bearing": 24.3}}, {"type": "Feature", "geometry": {"type": "LineString", "coordinates": [[12.7029039, 55.9110373], [12.7029043, 55.9110548]]}, "properties": {"t": "fall", "g": 5, "loop": "S:t Ibb", "hole": 5, "slope_pct": 3.24, "bearing": 0.8}}, {"type": "Feature", "geometry": {"type": "LineString", "coordinates": [[12.7029519, 55.9110382], [12.7029541, 55.9110544]]}, "properties": {"t": "fall", "g": 5, "loop": "S:t Ibb", "hole": 5, "slope_pct": 3.02, "bearing": 4.4}}, {"type": "Feature", "geometry": {"type": "LineString", "coordinates": [[12.7029998, 55.9110391], [12.7030003, 55.9110504]]}, "properties": {"t": "fall", "g": 5, "loop": "S:t Ibb", "hole": 5, "slope_pct": 2.09, "bearing": 1.3}}, {"type": "Feature", "geometry": {"type": "LineString", "coordinates": [[12.7030478, 55.91104], [12.7030542, 55.9110497]]}, "properties": {"t": "fall", "g": 5, "loop": "S:t Ibb", "hole": 5, "slope_pct": 1.91, "bearing": 20.5}}, {"type": "Feature", "geometry": {"type": "LineString", "coordinates": [[12.7030957, 55.9110409], [12.7031028, 55.911051]]}, "properties": {"t": "fall", "g": 5, "loop": "S:t Ibb", "hole": 5, "slope_pct": 2.01, "bearing": 21.3}}, {"type": "Feature", "geometry": {"type": "LineString", "coordinates": [[12.7028576, 55.9110095], [12.7028617, 55.9110194]]}, "properties": {"t": "fall", "g": 5, "loop": "S:t Ibb", "hole": 5, "slope_pct": 1.89, "bearing": 13.2}}, {"type": "Feature", "geometry": {"type": "LineString", "coordinates": [[12.7029055, 55.9110104], [12.702901, 55.9110236]]}, "properties": {"t": "fall", "g": 5, "loop": "S:t Ibb", "hole": 5, "slope_pct": 2.49, "bearing": 349.2}}, {"type": "Feature", "geometry": {"type": "LineString", "coordinates": [[12.7029535, 55.9110113], [12.7029582, 55.9110274]]}, "properties": {"t": "fall", "g": 5, "loop": "S:t Ibb", "hole": 5, "slope_pct": 3.03, "bearing": 9.4}}, {"type": "Feature", "geometry": {"type": "LineString", "coordinates": [[12.7030014, 55.9110122], [12.7030079, 55.9110282]]}, "properties": {"t": "fall", "g": 5, "loop": "S:t Ibb", "hole": 5, "slope_pct": 3.05, "bearing": 12.8}}, {"type": "Feature", "geometry": {"type": "LineString", "coordinates": [[12.7030494, 55.9110131], [12.7030607, 55.911027]]}, "properties": {"t": "fall", "g": 5, "loop": "S:t Ibb", "hole": 5, "slope_pct": 2.84, "bearing": 24.5}}, {"type": "Feature", "geometry": {"type": "LineString", "coordinates": [[12.7030973, 55.911014], [12.7031061, 55.9110259]]}, "properties": {"t": "fall", "g": 5, "loop": "S:t Ibb", "hole": 5, "slope_pct": 2.4, "bearing": 22.4}}, {"type": "Feature", "geometry": {"type": "LineString", "coordinates": [[12.7028592, 55.9109826], [12.7028551, 55.9109895]]}, "properties": {"t": "fall", "g": 5, "loop": "S:t Ibb", "hole": 5, "slope_pct": 1.35, "bearing": 342.0}}, {"type": "Feature", "geometry": {"type": "LineString", "coordinates": [[12.7029071, 55.9109835], [12.7029003, 55.9109916]]}, "properties": {"t": "fall", "g": 5, "loop": "S:t Ibb", "hole": 5, "slope_pct": 1.67, "bearing": 335.0}}, {"type": "Feature", "geometry": {"type": "LineString", "coordinates": [[12.7029551, 55.9109844], [12.702955, 55.9109934]]}, "properties": {"t": "fall", "g": 5, "loop": "S:t Ibb", "hole": 5, "slope_pct": 1.68, "bearing": 359.9}}, {"type": "Feature", "geometry": {"type": "LineString", "coordinates": [[12.703003, 55.9109853], [12.7030071, 55.9109983]]}, "properties": {"t": "fall", "g": 5, "loop": "S:t Ibb", "hole": 5, "slope_pct": 2.45, "bearing": 10.1}}, {"type": "Feature", "geometry": {"type": "LineString", "coordinates": [[12.703051, 55.9109862], [12.7030633, 55.9109994]]}, "properties": {"t": "fall", "g": 5, "loop": "S:t Ibb", "hole": 5, "slope_pct": 2.77, "bearing": 27.6}}, {"type": "Feature", "geometry": {"type": "LineString", "coordinates": [[12.7028128, 55.9109547], [12.7028229, 55.910965]]}, "properties": {"t": "fall", "g": 5, "loop": "S:t Ibb", "hole": 5, "slope_pct": 2.18, "bearing": 28.8}}, {"type": "Feature", "geometry": {"type": "LineString", "coordinates": [[12.7028608, 55.9109556], [12.7028548, 55.9109687]]}, "properties": {"t": "fall", "g": 5, "loop": "S:t Ibb", "hole": 5, "slope_pct": 2.5, "bearing": 345.6}}, {"type": "Feature", "geometry": {"type": "LineString", "coordinates": [[12.7029087, 55.9109565], [12.7029052, 55.9109658]]}, "properties": {"t": "fall", "g": 5, "loop": "S:t Ibb", "hole": 5, "slope_pct": 1.77, "bearing": 348.0}}, {"type": "Feature", "geometry": {"type": "LineString", "coordinates": [[12.7029567, 55.9109574], [12.7029558, 55.9109642]]}, "properties": {"t": "fall", "g": 5, "loop": "S:t Ibb", "hole": 5, "slope_pct": 1.25, "bearing": 356.0}}, {"type": "Feature", "geometry": {"type": "LineString", "coordinates": [[12.7030046, 55.9109583], [12.7030075, 55.9109635]]}, "properties": {"t": "fall", "g": 5, "loop": "S:t Ibb", "hole": 5, "slope_pct": 1.01, "bearing": 17.2}}, {"type": "Feature", "geometry": {"type": "LineString", "coordinates": [[12.7030526, 55.9109592], [12.7030582, 55.9109674]]}, "properties": {"t": "fall", "g": 5, "loop": "S:t Ibb", "hole": 5, "slope_pct": 1.64, "bearing": 21.0}}, {"type": "Feature", "geometry": {"type": "LineString", "coordinates": [[12.7028144, 55.9109278], [12.7028249, 55.9109443]]}, "properties": {"t": "fall", "g": 5, "loop": "S:t Ibb", "hole": 5, "slope_pct": 3.25, "bearing": 19.7}}, {"type": "Feature", "geometry": {"type": "LineString", "coordinates": [[12.7028623, 55.9109287], [12.7028593, 55.9109399]]}, "properties": {"t": "fall", "g": 5, "loop": "S:t Ibb", "hole": 5, "slope_pct": 2.11, "bearing": 351.4}}, {"type": "Feature", "geometry": {"type": "LineString", "coordinates": [[12.7029103, 55.9109296], [12.7029139, 55.9109404]]}, "properties": {"t": "fall", "g": 5, "loop": "S:t Ibb", "hole": 5, "slope_pct": 2.04, "bearing": 10.5}}, {"type": "Feature", "geometry": {"type": "LineString", "coordinates": [[12.7029583, 55.9109305], [12.7029578, 55.91094]]}, "properties": {"t": "fall", "g": 5, "loop": "S:t Ibb", "hole": 5, "slope_pct": 1.77, "bearing": 358.3}}, {"type": "Feature", "geometry": {"type": "LineString", "coordinates": [[12.7030062, 55.9109314], [12.703013, 55.9109393]]}, "properties": {"t": "fall", "g": 5, "loop": "S:t Ibb", "hole": 5, "slope_pct": 1.62, "bearing": 25.7}}, {"type": "Feature", "geometry": {"type": "LineString", "coordinates": [[12.7028639, 55.9109018], [12.7028763, 55.9109168]]}, "properties": {"t": "fall", "g": 5, "loop": "S:t Ibb", "hole": 5, "slope_pct": 3.07, "bearing": 24.7}}, {"type": "Feature", "geometry": {"type": "LineString", "coordinates": [[12.7029119, 55.9109027], [12.7029111, 55.9109122]]}, "properties": {"t": "fall", "g": 5, "loop": "S:t Ibb", "hole": 5, "slope_pct": 1.76, "bearing": 357.3}}, {"type": "Feature", "geometry": {"type": "LineString", "coordinates": [[12.7029598, 55.9109036], [12.702959, 55.9109167]]}, "properties": {"t": "fall", "g": 5, "loop": "S:t Ibb", "hole": 5, "slope_pct": 2.44, "bearing": 357.9}}, {"type": "Feature", "geometry": {"type": "Point", "coordinates": [12.7029692, 55.9110124]}, "properties": {"t": "aim", "g": 5, "loop": "S:t Ibb", "hole": 5, "aim_bearing": 8.9, "slope_median": 2.33, "slope_max": 3.25, "n_cells": 42}}, {"type": "Feature", "geometry": {"type": "LineString", "coordinates": [[12.7041779, 55.913308], [12.7041671, 55.9133076]]}, "properties": {"t": "fall", "g": 6, "loop": "S:t Ibb", "hole": 6, "slope_pct": 1.12, "bearing": 265.4}}, {"type": "Feature", "geometry": {"type": "LineString", "coordinates": [[12.7041315, 55.9132802], [12.7041042, 55.9132844]]}, "properties": {"t": "fall", "g": 6, "loop": "S:t Ibb", "hole": 6, "slope_pct": 2.94, "bearing": 285.3}}, {"type": "Feature", "geometry": {"type": "LineString", "coordinates": [[12.7041795, 55.9132811], [12.7041604, 55.9132879]]}, "properties": {"t": "fall", "g": 6, "loop": "S:t Ibb", "hole": 6, "slope_pct": 2.35, "bearing": 302.6}}, {"type": "Feature", "geometry": {"type": "LineString", "coordinates": [[12.7042274, 55.913282], [12.7042152, 55.9132885]]}, "properties": {"t": "fall", "g": 6, "loop": "S:t Ibb", "hole": 6, "slope_pct": 1.75, "bearing": 313.5}}, {"type": "Feature", "geometry": {"type": "LineString", "coordinates": [[12.7042754, 55.9132829], [12.7042661, 55.9132846]]}, "properties": {"t": "fall", "g": 6, "loop": "S:t Ibb", "hole": 6, "slope_pct": 1.01, "bearing": 287.9}}, {"type": "Feature", "geometry": {"type": "LineString", "coordinates": [[12.7041331, 55.9132533], [12.7041027, 55.9132563]]}, "properties": {"t": "fall", "g": 6, "loop": "S:t Ibb", "hole": 6, "slope_pct": 3.21, "bearing": 280.1}}, {"type": "Feature", "geometry": {"type": "LineString", "coordinates": [[12.7041811, 55.9132542], [12.7041622, 55.9132582]]}, "properties": {"t": "fall", "g": 6, "loop": "S:t Ibb", "hole": 6, "slope_pct": 2.1, "bearing": 290.9}}, {"type": "Feature", "geometry": {"type": "LineString", "coordinates": [[12.704229, 55.9132551], [12.7042227, 55.9132552]]}, "properties": {"t": "fall", "g": 6, "loop": "S:t Ibb", "hole": 6, "slope_pct": 0.65, "bearing": 271.9}}, {"type": "Feature", "geometry": {"type": "LineString", "coordinates": [[12.704277, 55.913256], [12.7042696, 55.9132566]]}, "properties": {"t": "fall", "g": 6, "loop": "S:t Ibb", "hole": 6, "slope_pct": 0.77, "bearing": 279.5}}, {"type": "Feature", "geometry": {"type": "LineString", "coordinates": [[12.7043249, 55.9132569], [12.7042951, 55.9132572]]}, "properties": {"t": "fall", "g": 6, "loop": "S:t Ibb", "hole": 6, "slope_pct": 3.1, "bearing": 271.2}}, {"type": "Feature", "geometry": {"type": "LineString", "coordinates": [[12.7041347, 55.9132263], [12.7041036, 55.9132306]]}, "properties": {"t": "fall", "g": 6, "loop": "S:t Ibb", "hole": 6, "slope_pct": 3.33, "bearing": 283.8}}, {"type": "Feature", "geometry": {"type": "LineString", "coordinates": [[12.7041826, 55.9132272], [12.70417, 55.9132265]]}, "properties": {"t": "fall", "g": 6, "loop": "S:t Ibb", "hole": 6, "slope_pct": 1.32, "bearing": 264.2}}, {"type": "Feature", "geometry": {"type": "LineString", "coordinates": [[12.7042306, 55.9132281], [12.7042243, 55.9132276]]}, "properties": {"t": "fall", "g": 6, "loop": "S:t Ibb", "hole": 6, "slope_pct": 0.67, "bearing": 261.4}}, {"type": "Feature", "geometry": {"type": "LineString", "coordinates": [[12.7042786, 55.913229], [12.7042686, 55.9132299]]}, "properties": {"t": "fall", "g": 6, "loop": "S:t Ibb", "hole": 6, "slope_pct": 1.04, "bearing": 279.0}}, {"type": "Feature", "geometry": {"type": "LineString", "coordinates": [[12.7043265, 55.9132299], [12.7043058, 55.913228]]}, "properties": {"t": "fall", "g": 6, "loop": "S:t Ibb", "hole": 6, "slope_pct": 2.18, "bearing": 260.4}}, {"type": "Feature", "geometry": {"type": "LineString", "coordinates": [[12.7041363, 55.9131994], [12.7041165, 55.9132003]]}, "properties": {"t": "fall", "g": 6, "loop": "S:t Ibb", "hole": 6, "slope_pct": 2.07, "bearing": 274.5}}, {"type": "Feature", "geometry": {"type": "LineString", "coordinates": [[12.7041842, 55.9132003], [12.704177, 55.9131976]]}, "properties": {"t": "fall", "g": 6, "loop": "S:t Ibb", "hole": 6, "slope_pct": 0.91, "bearing": 236.2}}, {"type": "Feature", "geometry": {"type": "LineString", "coordinates": [[12.7042322, 55.9132012], [12.7042213, 55.9131974]]}, "properties": {"t": "fall", "g": 6, "loop": "S:t Ibb", "hole": 6, "slope_pct": 1.33, "bearing": 238.0}}, {"type": "Feature", "geometry": {"type": "LineString", "coordinates": [[12.7042801, 55.9132021], [12.7042671, 55.9132011]]}, "properties": {"t": "fall", "g": 6, "loop": "S:t Ibb", "hole": 6, "slope_pct": 1.37, "bearing": 262.6}}, {"type": "Feature", "geometry": {"type": "LineString", "coordinates": [[12.7043281, 55.913203], [12.7043174, 55.9132012]]}, "properties": {"t": "fall", "g": 6, "loop": "S:t Ibb", "hole": 6, "slope_pct": 1.16, "bearing": 253.8}}, {"type": "Feature", "geometry": {"type": "LineString", "coordinates": [[12.7041379, 55.9131725], [12.7041196, 55.9131736]]}, "properties": {"t": "fall", "g": 6, "loop": "S:t Ibb", "hole": 6, "slope_pct": 1.92, "bearing": 276.3}}, {"type": "Feature", "geometry": {"type": "LineString", "coordinates": [[12.7042338, 55.9131743], [12.7042204, 55.9131747]]}, "properties": {"t": "fall", "g": 6, "loop": "S:t Ibb", "hole": 6, "slope_pct": 1.4, "bearing": 273.6}}, {"type": "Feature", "geometry": {"type": "LineString", "coordinates": [[12.7042817, 55.9131752], [12.7042709, 55.9131757]]}, "properties": {"t": "fall", "g": 6, "loop": "S:t Ibb", "hole": 6, "slope_pct": 1.13, "bearing": 274.8}}, {"type": "Feature", "geometry": {"type": "LineString", "coordinates": [[12.7043297, 55.9131761], [12.7043193, 55.9131752]]}, "properties": {"t": "fall", "g": 6, "loop": "S:t Ibb", "hole": 6, "slope_pct": 1.09, "bearing": 261.7}}, {"type": "Feature", "geometry": {"type": "LineString", "coordinates": [[12.7041395, 55.9131455], [12.7041013, 55.9131292]]}, "properties": {"t": "fall", "g": 6, "loop": "S:t Ibb", "hole": 6, "slope_pct": 8.66, "bearing": 232.6}}, {"type": "Feature", "geometry": {"type": "LineString", "coordinates": [[12.7041874, 55.9131464], [12.7041825, 55.913147]]}, "properties": {"t": "fall", "g": 6, "loop": "S:t Ibb", "hole": 6, "slope_pct": 0.52, "bearing": 281.0}}, {"type": "Feature", "geometry": {"type": "LineString", "coordinates": [[12.7042354, 55.9131473], [12.7042244, 55.9131487]]}, "properties": {"t": "fall", "g": 6, "loop": "S:t Ibb", "hole": 6, "slope_pct": 1.17, "bearing": 282.6}}, {"type": "Feature", "geometry": {"type": "LineString", "coordinates": [[12.7042833, 55.9131482], [12.7042732, 55.9131472]]}, "properties": {"t": "fall", "g": 6, "loop": "S:t Ibb", "hole": 6, "slope_pct": 1.08, "bearing": 259.7}}, {"type": "Feature", "geometry": {"type": "LineString", "coordinates": [[12.7043313, 55.9131491], [12.7043259, 55.9131464]]}, "properties": {"t": "fall", "g": 6, "loop": "S:t Ibb", "hole": 6, "slope_pct": 0.75, "bearing": 227.5}}, {"type": "Feature", "geometry": {"type": "LineString", "coordinates": [[12.704189, 55.9131195], [12.7041581, 55.9131155]]}, "properties": {"t": "fall", "g": 6, "loop": "S:t Ibb", "hole": 6, "slope_pct": 3.3, "bearing": 256.9}}, {"type": "Feature", "geometry": {"type": "LineString", "coordinates": [[12.7042849, 55.9131213], [12.7042763, 55.9131159]]}, "properties": {"t": "fall", "g": 6, "loop": "S:t Ibb", "hole": 6, "slope_pct": 1.34, "bearing": 221.7}}, {"type": "Feature", "geometry": {"type": "LineString", "coordinates": [[12.7043329, 55.9131222], [12.7043278, 55.9131189]]}, "properties": {"t": "fall", "g": 6, "loop": "S:t Ibb", "hole": 6, "slope_pct": 0.8, "bearing": 221.0}}, {"type": "Feature", "geometry": {"type": "LineString", "coordinates": [[12.7042386, 55.9130935], [12.7042428, 55.9130849]]}, "properties": {"t": "fall", "g": 6, "loop": "S:t Ibb", "hole": 6, "slope_pct": 1.65, "bearing": 164.5}}, {"type": "Feature", "geometry": {"type": "LineString", "coordinates": [[12.7042865, 55.9130944], [12.7042741, 55.913088]]}, "properties": {"t": "fall", "g": 6, "loop": "S:t Ibb", "hole": 6, "slope_pct": 1.75, "bearing": 227.8}}, {"type": "Feature", "geometry": {"type": "Point", "coordinates": [12.70423, 55.9132009]}, "properties": {"t": "aim", "g": 6, "loop": "S:t Ibb", "hole": 6, "aim_bearing": 262.7, "slope_median": 1.33, "slope_max": 8.66, "n_cells": 36}}, {"type": "Feature", "geometry": {"type": "LineString", "coordinates": [[12.7058705, 55.9125577], [12.7058288, 55.9125643]]}, "properties": {"t": "fall", "g": 7, "loop": "S:t Ibb", "hole": 7, "slope_pct": 4.51, "bearing": 285.8}}, {"type": "Feature", "geometry": {"type": "LineString", "coordinates": [[12.7058241, 55.9125298], [12.7057796, 55.91254]]}, "properties": {"t": "fall", "g": 7, "loop": "S:t Ibb", "hole": 7, "slope_pct": 5.03, "bearing": 292.1}}, {"type": "Feature", "geometry": {"type": "LineString", "coordinates": [[12.7058721, 55.9125307], [12.7058344, 55.9125425]]}, "properties": {"t": "fall", "g": 7, "loop": "S:t Ibb", "hole": 7, "slope_pct": 4.49, "bearing": 299.2}}, {"type": "Feature", "geometry": {"type": "LineString", "coordinates": [[12.70592, 55.9125316], [12.705874, 55.9125393]]}, "properties": {"t": "fall", "g": 7, "loop": "S:t Ibb", "hole": 7, "slope_pct": 5.1, "bearing": 286.6}}, {"type": "Feature", "geometry": {"type": "LineString", "coordinates": [[12.7058257, 55.9125029], [12.7057853, 55.9125175]]}, "properties": {"t": "fall", "g": 7, "loop": "S:t Ibb", "hole": 7, "slope_pct": 5.11, "bearing": 302.8}}, {"type": "Feature", "geometry": {"type": "LineString", "coordinates": [[12.7058737, 55.9125038], [12.7058398, 55.9125124]]}, "properties": {"t": "fall", "g": 7, "loop": "S:t Ibb", "hole": 7, "slope_pct": 3.87, "bearing": 294.4}}, {"type": "Feature", "geometry": {"type": "LineString", "coordinates": [[12.7059216, 55.9125047], [12.7058852, 55.9125097]]}, "properties": {"t": "fall", "g": 7, "loop": "S:t Ibb", "hole": 7, "slope_pct": 3.91, "bearing": 283.9}}, {"type": "Feature", "geometry": {"type": "LineString", "coordinates": [[12.7058273, 55.912476], [12.7057866, 55.9124851]]}, "properties": {"t": "fall", "g": 7, "loop": "S:t Ibb", "hole": 7, "slope_pct": 4.56, "bearing": 291.9}}, {"type": "Feature", "geometry": {"type": "LineString", "coordinates": [[12.7058753, 55.9124769], [12.7058503, 55.9124837]]}, "properties": {"t": "fall", "g": 7, "loop": "S:t Ibb", "hole": 7, "slope_pct": 2.89, "bearing": 296.1}}, {"type": "Feature", "geometry": {"type": "LineString", "coordinates": [[12.7059232, 55.9124777], [12.7058934, 55.9124802]]}, "properties": {"t": "fall", "g": 7, "loop": "S:t Ibb", "hole": 7, "slope_pct": 3.13, "bearing": 278.2}}, {"type": "Feature", "geometry": {"type": "LineString", "coordinates": [[12.7058769, 55.9124499], [12.7058615, 55.9124545]]}, "properties": {"t": "fall", "g": 7, "loop": "S:t Ibb", "hole": 7, "slope_pct": 1.81, "bearing": 297.8}}, {"type": "Feature", "geometry": {"type": "LineString", "coordinates": [[12.7059248, 55.9124508], [12.7059021, 55.9124526]]}, "properties": {"t": "fall", "g": 7, "loop": "S:t Ibb", "hole": 7, "slope_pct": 2.39, "bearing": 278.0}}, {"type": "Feature", "geometry": {"type": "LineString", "coordinates": [[12.7059728, 55.9124517], [12.7059298, 55.9124478]]}, "properties": {"t": "fall", "g": 7, "loop": "S:t Ibb", "hole": 7, "slope_pct": 4.53, "bearing": 260.7}}, {"type": "Feature", "geometry": {"type": "LineString", "coordinates": [[12.7058785, 55.912423], [12.7058669, 55.9124251]]}, "properties": {"t": "fall", "g": 7, "loop": "S:t Ibb", "hole": 7, "slope_pct": 1.26, "bearing": 288.0}}, {"type": "Feature", "geometry": {"type": "LineString", "coordinates": [[12.7059264, 55.9124239], [12.7059044, 55.9124267]]}, "properties": {"t": "fall", "g": 7, "loop": "S:t Ibb", "hole": 7, "slope_pct": 2.34, "bearing": 282.7}}, {"type": "Feature", "geometry": {"type": "LineString", "coordinates": [[12.7059744, 55.9124248], [12.705945, 55.9124265]]}, "properties": {"t": "fall", "g": 7, "loop": "S:t Ibb", "hole": 7, "slope_pct": 3.07, "bearing": 276.0}}, {"type": "Feature", "geometry": {"type": "LineString", "coordinates": [[12.70588, 55.9123961], [12.7058622, 55.9124004]]}, "properties": {"t": "fall", "g": 7, "loop": "S:t Ibb", "hole": 7, "slope_pct": 2.02, "bearing": 293.4}}, {"type": "Feature", "geometry": {"type": "LineString", "coordinates": [[12.705928, 55.9123969], [12.7059063, 55.9124023]]}, "properties": {"t": "fall", "g": 7, "loop": "S:t Ibb", "hole": 7, "slope_pct": 2.47, "bearing": 293.8}}, {"type": "Feature", "geometry": {"type": "LineString", "coordinates": [[12.705976, 55.9123978], [12.705952, 55.9124017]]}, "properties": {"t": "fall", "g": 7, "loop": "S:t Ibb", "hole": 7, "slope_pct": 2.59, "bearing": 286.0}}, {"type": "Feature", "geometry": {"type": "LineString", "coordinates": [[12.7058816, 55.9123691], [12.705853, 55.912366]]}, "properties": {"t": "fall", "g": 7, "loop": "S:t Ibb", "hole": 7, "slope_pct": 3.03, "bearing": 259.1}}, {"type": "Feature", "geometry": {"type": "LineString", "coordinates": [[12.7059296, 55.91237], [12.7059066, 55.9123726]]}, "properties": {"t": "fall", "g": 7, "loop": "S:t Ibb", "hole": 7, "slope_pct": 2.44, "bearing": 281.5}}, {"type": "Feature", "geometry": {"type": "LineString", "coordinates": [[12.7059775, 55.9123709], [12.7059556, 55.9123742]]}, "properties": {"t": "fall", "g": 7, "loop": "S:t Ibb", "hole": 7, "slope_pct": 2.37, "bearing": 285.0}}, {"type": "Feature", "geometry": {"type": "LineString", "coordinates": [[12.7059312, 55.9123431], [12.7059025, 55.9123558]]}, "properties": {"t": "fall", "g": 7, "loop": "S:t Ibb", "hole": 7, "slope_pct": 3.81, "bearing": 308.3}}, {"type": "Feature", "geometry": {"type": "Point", "coordinates": [12.705904, 55.9124457]}, "properties": {"t": "aim", "g": 7, "loop": "S:t Ibb", "hole": 7, "aim_bearing": 287.5, "slope_median": 3.07, "slope_max": 5.11, "n_cells": 23}}, {"type": "Feature", "geometry": {"type": "LineString", "coordinates": [[12.7076931, 55.9152969], [12.7076918, 55.9153039]]}, "properties": {"t": "fall", "g": 8, "loop": "S:t Ibb", "hole": 8, "slope_pct": 1.31, "bearing": 354.1}}, {"type": "Feature", "geometry": {"type": "LineString", "coordinates": [[12.7077411, 55.9152978], [12.7077369, 55.9153028]]}, "properties": {"t": "fall", "g": 8, "loop": "S:t Ibb", "hole": 8, "slope_pct": 1.03, "bearing": 334.8}}, {"type": "Feature", "geometry": {"type": "LineString", "coordinates": [[12.707789, 55.9152987], [12.7077709, 55.915297]]}, "properties": {"t": "fall", "g": 8, "loop": "S:t Ibb", "hole": 8, "slope_pct": 1.92, "bearing": 260.4}}, {"type": "Feature", "geometry": {"type": "LineString", "coordinates": [[12.7076947, 55.91527], [12.7076906, 55.9152753]]}, "properties": {"t": "fall", "g": 8, "loop": "S:t Ibb", "hole": 8, "slope_pct": 1.08, "bearing": 336.5}}, {"type": "Feature", "geometry": {"type": "LineString", "coordinates": [[12.7077427, 55.9152709], [12.7077417, 55.9152781]]}, "properties": {"t": "fall", "g": 8, "loop": "S:t Ibb", "hole": 8, "slope_pct": 1.34, "bearing": 355.8}}, {"type": "Feature", "geometry": {"type": "LineString", "coordinates": [[12.7077906, 55.9152718], [12.7077871, 55.9152758]]}, "properties": {"t": "fall", "g": 8, "loop": "S:t Ibb", "hole": 8, "slope_pct": 0.83, "bearing": 334.0}}, {"type": "Feature", "geometry": {"type": "LineString", "coordinates": [[12.7078386, 55.9152727], [12.7078173, 55.9152698]]}, "properties": {"t": "fall", "g": 8, "loop": "S:t Ibb", "hole": 8, "slope_pct": 2.28, "bearing": 256.4}}, {"type": "Feature", "geometry": {"type": "LineString", "coordinates": [[12.7076483, 55.9152422], [12.7076595, 55.9152398]]}, "properties": {"t": "fall", "g": 8, "loop": "S:t Ibb", "hole": 8, "slope_pct": 1.24, "bearing": 111.0}}, {"type": "Feature", "geometry": {"type": "LineString", "coordinates": [[12.7076963, 55.915243], [12.7076883, 55.9152477]]}, "properties": {"t": "fall", "g": 8, "loop": "S:t Ibb", "hole": 8, "slope_pct": 1.19, "bearing": 316.0}}, {"type": "Feature", "geometry": {"type": "LineString", "coordinates": [[12.7077443, 55.9152439], [12.7077422, 55.9152484]]}, "properties": {"t": "fall", "g": 8, "loop": "S:t Ibb", "hole": 8, "slope_pct": 0.86, "bearing": 345.8}}, {"type": "Feature", "geometry": {"type": "LineString", "coordinates": [[12.7077922, 55.9152448], [12.7077917, 55.9152503]]}, "properties": {"t": "fall", "g": 8, "loop": "S:t Ibb", "hole": 8, "slope_pct": 1.01, "bearing": 356.8}}, {"type": "Feature", "geometry": {"type": "LineString", "coordinates": [[12.7078402, 55.9152457], [12.7078297, 55.9152496]]}, "properties": {"t": "fall", "g": 8, "loop": "S:t Ibb", "hole": 8, "slope_pct": 1.31, "bearing": 303.7}}, {"type": "Feature", "geometry": {"type": "LineString", "coordinates": [[12.7076499, 55.9152152], [12.7076426, 55.9152151]]}, "properties": {"t": "fall", "g": 8, "loop": "S:t Ibb", "hole": 8, "slope_pct": 0.76, "bearing": 268.7}}, {"type": "Feature", "geometry": {"type": "LineString", "coordinates": [[12.7076979, 55.9152161], [12.7076908, 55.9152178]]}, "properties": {"t": "fall", "g": 8, "loop": "S:t Ibb", "hole": 8, "slope_pct": 0.8, "bearing": 293.2}}, {"type": "Feature", "geometry": {"type": "LineString", "coordinates": [[12.7077459, 55.915217], [12.7077422, 55.9152188]]}, "properties": {"t": "fall", "g": 8, "loop": "S:t Ibb", "hole": 8, "slope_pct": 0.51, "bearing": 311.7}}, {"type": "Feature", "geometry": {"type": "LineString", "coordinates": [[12.7078418, 55.9152188], [12.7078308, 55.9152199]]}, "properties": {"t": "fall", "g": 8, "loop": "S:t Ibb", "hole": 8, "slope_pct": 1.16, "bearing": 280.5}}, {"type": "Feature", "geometry": {"type": "LineString", "coordinates": [[12.7076036, 55.9151874], [12.7075892, 55.9151878]]}, "properties": {"t": "fall", "g": 8, "loop": "S:t Ibb", "hole": 8, "slope_pct": 1.5, "bearing": 272.8}}, {"type": "Feature", "geometry": {"type": "LineString", "coordinates": [[12.7076515, 55.9151883], [12.7076408, 55.9151914]]}, "properties": {"t": "fall", "g": 8, "loop": "S:t Ibb", "hole": 8, "slope_pct": 1.25, "bearing": 297.8}}, {"type": "Feature", "geometry": {"type": "LineString", "coordinates": [[12.7076995, 55.9151892], [12.7076942, 55.9151919]]}, "properties": {"t": "fall", "g": 8, "loop": "S:t Ibb", "hole": 8, "slope_pct": 0.75, "bearing": 312.6}}, {"type": "Feature", "geometry": {"type": "LineString", "coordinates": [[12.7076052, 55.9151605], [12.7075882, 55.9151592]]}, "properties": {"t": "fall", "g": 8, "loop": "S:t Ibb", "hole": 8, "slope_pct": 1.78, "bearing": 262.4}}, {"type": "Feature", "geometry": {"type": "LineString", "coordinates": [[12.7076531, 55.9151614], [12.7076426, 55.9151575]]}, "properties": {"t": "fall", "g": 8, "loop": "S:t Ibb", "hole": 8, "slope_pct": 1.31, "bearing": 236.6}}, {"type": "Feature", "geometry": {"type": "LineString", "coordinates": [[12.7077011, 55.9151622], [12.7076979, 55.9151592]]}, "properties": {"t": "fall", "g": 8, "loop": "S:t Ibb", "hole": 8, "slope_pct": 0.65, "bearing": 210.8}}, {"type": "Feature", "geometry": {"type": "LineString", "coordinates": [[12.707797, 55.915164], [12.7077765, 55.9151757]]}, "properties": {"t": "fall", "g": 8, "loop": "S:t Ibb", "hole": 8, "slope_pct": 3.03, "bearing": 315.3}}, {"type": "Feature", "geometry": {"type": "LineString", "coordinates": [[12.7076067, 55.9151335], [12.7075947, 55.9151299]]}, "properties": {"t": "fall", "g": 8, "loop": "S:t Ibb", "hole": 8, "slope_pct": 1.43, "bearing": 241.6}}, {"type": "Feature", "geometry": {"type": "LineString", "coordinates": [[12.7076547, 55.9151344], [12.7076436, 55.9151327]]}, "properties": {"t": "fall", "g": 8, "loop": "S:t Ibb", "hole": 8, "slope_pct": 1.19, "bearing": 254.9}}, {"type": "Feature", "geometry": {"type": "LineString", "coordinates": [[12.7077027, 55.9151353], [12.707696, 55.915135]]}, "properties": {"t": "fall", "g": 8, "loop": "S:t Ibb", "hole": 8, "slope_pct": 0.69, "bearing": 265.5}}, {"type": "Feature", "geometry": {"type": "LineString", "coordinates": [[12.7077506, 55.9151362], [12.7077355, 55.9151394]]}, "properties": {"t": "fall", "g": 8, "loop": "S:t Ibb", "hole": 8, "slope_pct": 1.68, "bearing": 290.3}}, {"type": "Feature", "geometry": {"type": "Point", "coordinates": [12.7077221, 55.9152119]}, "properties": {"t": "aim", "g": 8, "loop": "S:t Ibb", "hole": 8, "aim_bearing": 292.1, "slope_median": 1.17, "slope_max": 3.03, "n_cells": 30}}, {"type": "Feature", "geometry": {"type": "LineString", "coordinates": [[12.7041961, 55.9159777], [12.704218, 55.9159774]]}, "properties": {"t": "fall", "g": 9, "loop": "S:t Ibb", "hole": 9, "slope_pct": 2.28, "bearing": 91.6}}, {"type": "Feature", "geometry": {"type": "LineString", "coordinates": [[12.704244, 55.9159786], [12.7042533, 55.9159654]]}, "properties": {"t": "fall", "g": 9, "loop": "S:t Ibb", "hole": 9, "slope_pct": 2.63, "bearing": 158.6}}, {"type": "Feature", "geometry": {"type": "LineString", "coordinates": [[12.704292, 55.9159795], [12.7042901, 55.9159751]]}, "properties": {"t": "fall", "g": 9, "loop": "S:t Ibb", "hole": 9, "slope_pct": 0.84, "bearing": 193.7}}, {"type": "Feature", "geometry": {"type": "LineString", "coordinates": [[12.7043399, 55.9159804], [12.7043299, 55.9159793]]}, "properties": {"t": "fall", "g": 9, "loop": "S:t Ibb", "hole": 9, "slope_pct": 1.06, "bearing": 259.0}}, {"type": "Feature", "geometry": {"type": "LineString", "coordinates": [[12.7043879, 55.9159813], [12.7043621, 55.9159754]]}, "properties": {"t": "fall", "g": 9, "loop": "S:t Ibb", "hole": 9, "slope_pct": 2.89, "bearing": 247.9}}, {"type": "Feature", "geometry": {"type": "LineString", "coordinates": [[12.7044359, 55.9159822], [12.7044056, 55.9159613]]}, "properties": {"t": "fall", "g": 9, "loop": "S:t Ibb", "hole": 9, "slope_pct": 5.53, "bearing": 219.0}}, {"type": "Feature", "geometry": {"type": "LineString", "coordinates": [[12.7041977, 55.9159508], [12.7042206, 55.915941]]}, "properties": {"t": "fall", "g": 9, "loop": "S:t Ibb", "hole": 9, "slope_pct": 3.01, "bearing": 127.4}}, {"type": "Feature", "geometry": {"type": "LineString", "coordinates": [[12.7042456, 55.9159517], [12.7042397, 55.915951]]}, "properties": {"t": "fall", "g": 9, "loop": "S:t Ibb", "hole": 9, "slope_pct": 0.63, "bearing": 258.4}}, {"type": "Feature", "geometry": {"type": "LineString", "coordinates": [[12.7042936, 55.9159526], [12.7042847, 55.9159568]]}, "properties": {"t": "fall", "g": 9, "loop": "S:t Ibb", "hole": 9, "slope_pct": 1.2, "bearing": 309.9}}, {"type": "Feature", "geometry": {"type": "LineString", "coordinates": [[12.7043415, 55.9159535], [12.7043303, 55.9159586]]}, "properties": {"t": "fall", "g": 9, "loop": "S:t Ibb", "hole": 9, "slope_pct": 1.51, "bearing": 309.2}}, {"type": "Feature", "geometry": {"type": "LineString", "coordinates": [[12.7043895, 55.9159544], [12.7043769, 55.9159599]]}, "properties": {"t": "fall", "g": 9, "loop": "S:t Ibb", "hole": 9, "slope_pct": 1.66, "bearing": 308.0}}, {"type": "Feature", "geometry": {"type": "LineString", "coordinates": [[12.7044375, 55.9159553], [12.7044237, 55.915956]]}, "properties": {"t": "fall", "g": 9, "loop": "S:t Ibb", "hole": 9, "slope_pct": 1.43, "bearing": 275.5}}, {"type": "Feature", "geometry": {"type": "LineString", "coordinates": [[12.7044854, 55.9159562], [12.7044719, 55.9159485]]}, "properties": {"t": "fall", "g": 9, "loop": "S:t Ibb", "hole": 9, "slope_pct": 2.0, "bearing": 224.7}}, {"type": "Feature", "geometry": {"type": "LineString", "coordinates": [[12.7045334, 55.9159571], [12.7045214, 55.9159427]]}, "properties": {"t": "fall", "g": 9, "loop": "S:t Ibb", "hole": 9, "slope_pct": 2.94, "bearing": 205.0}}, {"type": "Feature", "geometry": {"type": "LineString", "coordinates": [[12.7045813, 55.915958], [12.7045825, 55.9159485]]}, "properties": {"t": "fall", "g": 9, "loop": "S:t Ibb", "hole": 9, "slope_pct": 1.77, "bearing": 176.1}}, {"type": "Feature", "geometry": {"type": "LineString", "coordinates": [[12.7041993, 55.9159239], [12.7042084, 55.9159242]]}, "properties": {"t": "fall", "g": 9, "loop": "S:t Ibb", "hole": 9, "slope_pct": 0.95, "bearing": 85.8}}, {"type": "Feature", "geometry": {"type": "LineString", "coordinates": [[12.7042472, 55.9159248], [12.7042359, 55.9159273]]}, "properties": {"t": "fall", "g": 9, "loop": "S:t Ibb", "hole": 9, "slope_pct": 1.27, "bearing": 292.1}}, {"type": "Feature", "geometry": {"type": "LineString", "coordinates": [[12.7042952, 55.9159257], [12.704282, 55.9159292]]}, "properties": {"t": "fall", "g": 9, "loop": "S:t Ibb", "hole": 9, "slope_pct": 1.52, "bearing": 295.7}}, {"type": "Feature", "geometry": {"type": "LineString", "coordinates": [[12.7043431, 55.9159266], [12.7043241, 55.9159378]]}, "properties": {"t": "fall", "g": 9, "loop": "S:t Ibb", "hole": 9, "slope_pct": 2.87, "bearing": 316.6}}, {"type": "Feature", "geometry": {"type": "LineString", "coordinates": [[12.7043911, 55.9159274], [12.7043797, 55.9159445]]}, "properties": {"t": "fall", "g": 9, "loop": "S:t Ibb", "hole": 9, "slope_pct": 3.37, "bearing": 339.4}}, {"type": "Feature", "geometry": {"type": "LineString", "coordinates": [[12.704439, 55.9159283], [12.7044298, 55.9159444]]}, "properties": {"t": "fall", "g": 9, "loop": "S:t Ibb", "hole": 9, "slope_pct": 3.13, "bearing": 342.0}}, {"type": "Feature", "geometry": {"type": "LineString", "coordinates": [[12.704487, 55.9159292], [12.7044812, 55.915945]]}, "properties": {"t": "fall", "g": 9, "loop": "S:t Ibb", "hole": 9, "slope_pct": 2.98, "bearing": 348.2}}, {"type": "Feature", "geometry": {"type": "LineString", "coordinates": [[12.704535, 55.9159301], [12.7045287, 55.9159417]]}, "properties": {"t": "fall", "g": 9, "loop": "S:t Ibb", "hole": 9, "slope_pct": 2.25, "bearing": 343.2}}, {"type": "Feature", "geometry": {"type": "LineString", "coordinates": [[12.7045829, 55.915931], [12.7045746, 55.9159385]]}, "properties": {"t": "fall", "g": 9, "loop": "S:t Ibb", "hole": 9, "slope_pct": 1.63, "bearing": 327.9}}, {"type": "Feature", "geometry": {"type": "LineString", "coordinates": [[12.7046309, 55.9159319], [12.7046066, 55.9159387]]}, "properties": {"t": "fall", "g": 9, "loop": "S:t Ibb", "hole": 9, "slope_pct": 2.82, "bearing": 296.6}}, {"type": "Feature", "geometry": {"type": "LineString", "coordinates": [[12.7042008, 55.9158969], [12.7042039, 55.9159007]]}, "properties": {"t": "fall", "g": 9, "loop": "S:t Ibb", "hole": 9, "slope_pct": 0.76, "bearing": 24.5}}, {"type": "Feature", "geometry": {"type": "LineString", "coordinates": [[12.7042488, 55.9158978], [12.7042405, 55.9159012]]}, "properties": {"t": "fall", "g": 9, "loop": "S:t Ibb", "hole": 9, "slope_pct": 1.06, "bearing": 305.7}}, {"type": "Feature", "geometry": {"type": "LineString", "coordinates": [[12.7042968, 55.9158987], [12.7042735, 55.9159011]]}, "properties": {"t": "fall", "g": 9, "loop": "S:t Ibb", "hole": 9, "slope_pct": 2.45, "bearing": 280.1}}, {"type": "Feature", "geometry": {"type": "LineString", "coordinates": [[12.7043447, 55.9158996], [12.7043044, 55.9159143]]}, "properties": {"t": "fall", "g": 9, "loop": "S:t Ibb", "hole": 9, "slope_pct": 7.28, "bearing": 303.0}}, {"type": "Feature", "geometry": {"type": "LineString", "coordinates": [[12.7045366, 55.9159032], [12.704551, 55.915899]]}, "properties": {"t": "fall", "g": 9, "loop": "S:t Ibb", "hole": 9, "slope_pct": 1.69, "bearing": 117.3}}, {"type": "Feature", "geometry": {"type": "LineString", "coordinates": [[12.7045845, 55.9159041], [12.7045794, 55.9158947]]}, "properties": {"t": "fall", "g": 9, "loop": "S:t Ibb", "hole": 9, "slope_pct": 1.82, "bearing": 197.0}}, {"type": "Feature", "geometry": {"type": "Point", "coordinates": [12.7043777, 55.915942]}, "properties": {"t": "aim", "g": 9, "loop": "S:t Ibb", "hole": 9, "aim_bearing": 283.0, "slope_median": 1.82, "slope_max": 7.28, "n_cells": 31}}], "grids": {"S:t Ibb|1": {"ny": 19, "nx": 23, "lat0": 55.9156615, "lon0": 12.7068897, "dLat": 8.983e-06, "dLon": 1.6029e-05, "slope": [2.2, 2.2, 2.1, 2.0, 1.9, 1.8, 1.9, 2.3, 2.6, 3.8, 4.0, 4.1, 4.1, 3.9, 4.4, 4.4, 4.4, 4.5, 4.7, 4.8, 5.0, 5.0, 5.0, 2.3, 2.2, 2.2, 2.1, 2.0, 2.1, 2.3, 2.8, 3.3, 3.8, 4.0, 4.1, 4.0, 3.8, 4.4, 4.4, 4.5, 4.6, 4.8, 5.0, 5.0, 5.0, 4.8, 2.4, 2.3, 2.2, 2.2, 2.3, 2.5, 2.8, 3.1, 3.5, 3.7, 3.8, 3.7, 3.5, 3.7, 4.2, 4.5, 4.6, 4.8, 5.0, 5.0, 5.1, 4.9, 4.6, 2.5, 2.4, 2.4, 2.6, 2.8, 3.0, 3.1, 3.3, 3.5, 3.7, 3.7, 3.6, 3.3, 3.1, 3.5, 4.5, 4.7, 5.0, 5.0, 5.1, 4.9, 4.7, 4.3, 2.6, 2.5, 2.7, 3.0, 3.3, 3.3, 3.2, 3.3, 3.5, 3.6, 3.6, 3.5, 3.2, 3.1, 3.3, 3.9, 4.7, 5.0, 5.1, 4.9, 4.7, 4.4, 4.0, 2.6, 2.7, 3.0, 3.4, 3.5, 3.5, 3.4, 3.4, 3.4, 3.4, 3.5, 3.4, 3.2, 3.2, 3.4, 3.7, 4.1, 4.8, 4.9, 4.7, 4.4, 4.0, 3.9, 2.7, 2.8, 3.2, 3.7, 3.7, 3.7, 3.6, 3.4, 3.3, 3.3, 3.3, 3.3, 3.3, 3.4, 3.6, 3.7, 3.7, 3.9, 4.3, 4.4, 4.0, 3.9, 3.8, 2.7, 2.9, 3.5, 3.9, 4.0, 3.9, 3.7, 3.4, 3.1, 3.1, 3.2, 3.3, 3.4, 3.6, 3.7, 3.6, 3.5, 3.5, 3.4, 3.7, 3.9, 3.8, 4.2, 2.7, 3.0, 3.7, 4.1, 4.2, 4.0, 3.7, 3.3, 3.0, 3.0, 3.2, 3.4, 3.6, 3.7, 3.7, 3.5, 3.4, 3.3, 3.2, 3.2, 3.7, 4.1, 4.5, 2.7, 3.1, 3.8, 4.3, 4.4, 4.1, 3.7, 3.3, 3.1, 3.1, 3.3, 3.6, 3.8, 3.8, 3.6, 3.5, 3.3, 3.3, 3.3, 3.4, 3.7, 4.5, 4.7, 2.7, 3.2, 4.0, 4.5, 4.5, 4.1, 3.6, 3.3, 3.1, 3.2, 3.5, 3.8, 3.9, 3.7, 3.6, 3.5, 3.5, 3.6, 3.6, 3.7, 4.0, 4.9, 5.0, 3.5, 3.7, 4.3, 4.6, 4.5, 4.0, 3.4, 3.1, 3.1, 3.3, 3.7, 3.9, 3.8, 3.7, 3.7, 3.7, 3.8, 3.8, 3.8, 3.9, 4.4, 5.4, 5.7, 3.8, 3.8, 4.3, 4.7, 4.5, 3.9, 3.3, 3.0, 3.1, 3.4, 3.7, 3.8, 3.7, 3.7, 3.8, 4.0, 4.1, 4.1, 4.0, 4.1, 4.9, 6.2, 6.6, 3.8, 3.8, 4.5, 4.8, 4.6, 4.0, 3.6, 3.4, 3.5, 3.7, 3.9, 3.8, 3.8, 3.9, 4.2, 4.4, 4.4, 4.2, 4.1, 4.5, 5.6, 7.2, 7.7, 3.8, 4.4, 4.8, 4.6, 4.5, 4.1, 4.3, 4.6, 4.6, 4.6, 4.5, 4.4, 4.3, 4.4, 4.6, 4.6, 4.4, 4.2, 4.3, 5.0, 6.5, 7.7, 8.2, 3.8, 4.5, 4.6, 4.5, 4.5, 4.5, 4.6, 4.6, 5.8, 6.4, 6.0, 5.6, 5.3, 5.1, 5.1, 4.8, 4.5, 4.2, 4.6, 5.8, 7.1, 7.6, 7.9, 4.3, 4.6, 4.5, 4.5, 4.5, 4.6, 4.6, 5.7, 6.5, 7.6, 7.9, 7.3, 6.7, 6.2, 5.7, 5.2, 4.7, 4.6, 5.3, 6.4, 7.0, 7.3, 7.6, 4.2, 4.5, 4.5, 4.5, 4.5, 4.6, 5.6, 6.5, 7.5, 8.2, 7.9, 8.4, 8.2, 7.4, 6.7, 6.0, 5.2, 5.0, 5.9, 6.5, 6.7, 7.0, 7.3, 4.4, 4.5, 4.5, 4.5, 4.6, 4.6, 5.6, 7.4, 8.2, 8.3, 8.6, 8.8, 8.3, 8.0, 7.5, 7.0, 5.8, 4.9, 5.9, 6.5, 6.5, 6.7, 7.0]}, "S:t Ibb|2": {"ny": 23, "nx": 25, "lat0": 55.9145077, "lon0": 12.7046747, "dLat": 8.983e-06, "dLon": 1.6029e-05, "slope": [4.0, 3.6, 3.6, 3.6, 3.6, 3.6, 3.6, 3.6, 3.5, 3.5, 3.6, 3.6, 3.6, 3.6, 3.6, 3.7, 4.0, 4.5, 4.6, 4.7, 4.7, 4.7, 4.7, 4.7, 4.7, 4.5, 4.3, 4.0, 3.6, 3.6, 3.6, 3.6, 3.6, 3.5, 3.5, 3.6, 3.5, 3.5, 3.5, 3.5, 3.6, 4.0, 4.4, 4.6, 4.7, 4.7, 4.7, 4.7, 4.7, 4.7, 4.8, 4.8, 4.6, 4.1, 3.7, 3.6, 3.6, 3.6, 3.5, 3.5, 3.5, 3.5, 3.4, 3.4, 3.5, 3.7, 4.1, 4.5, 4.6, 4.7, 4.7, 4.7, 4.7, 4.7, 4.7, 4.8, 4.8, 4.8, 4.6, 4.2, 3.8, 3.7, 3.6, 3.5, 3.5, 3.5, 3.4, 3.4, 3.4, 3.6, 3.8, 4.2, 4.5, 4.5, 4.5, 4.6, 4.7, 4.7, 4.8, 4.8, 5.6, 4.8, 4.8, 4.8, 4.7, 4.3, 3.8, 3.5, 3.5, 3.5, 3.5, 3.4, 3.4, 3.5, 3.7, 4.0, 4.3, 4.5, 4.4, 4.4, 4.5, 4.7, 4.7, 4.8, 4.8, 6.7, 6.1, 5.7, 4.8, 4.8, 4.5, 3.8, 3.5, 3.4, 3.5, 3.5, 3.5, 3.6, 3.7, 3.9, 4.2, 4.4, 4.4, 4.3, 4.3, 4.4, 4.6, 4.8, 4.8, 4.8, 7.0, 7.0, 6.8, 6.2, 5.9, 4.6, 3.7, 3.4, 3.3, 3.4, 3.5, 3.6, 3.8, 3.9, 4.0, 4.3, 4.4, 4.3, 4.2, 4.2, 4.4, 4.6, 4.7, 4.8, 4.9, 7.0, 7.0, 7.0, 7.0, 6.4, 4.5, 3.6, 3.3, 3.2, 3.3, 3.5, 3.7, 3.8, 4.0, 4.1, 4.3, 4.3, 4.2, 4.1, 4.2, 4.4, 4.5, 4.7, 4.8, 4.9, 4.9, 5.3, 6.2, 6.2, 5.7, 4.1, 3.4, 3.1, 3.1, 3.2, 3.4, 3.6, 3.8, 4.1, 4.3, 4.4, 4.3, 4.2, 4.1, 4.3, 4.5, 4.5, 4.7, 4.9, 4.9, 3.0, 3.5, 4.5, 4.5, 4.5, 3.6, 3.2, 2.9, 2.9, 3.1, 3.3, 3.5, 3.8, 4.1, 4.3, 4.4, 4.4, 4.2, 4.2, 4.5, 4.6, 4.6, 4.7, 4.9, 5.0, 2.9, 3.0, 3.3, 3.7, 3.5, 3.2, 2.9, 2.7, 2.8, 3.1, 3.4, 3.6, 3.9, 4.1, 4.3, 4.4, 4.4, 4.3, 4.3, 4.6, 4.8, 4.8, 4.8, 5.0, 5.1, 2.9, 2.9, 2.9, 3.1, 3.0, 2.9, 2.6, 2.4, 2.5, 3.1, 3.6, 3.8, 4.0, 4.2, 4.3, 4.3, 4.3, 4.3, 4.4, 4.7, 4.9, 4.9, 5.0, 5.2, 5.3, 2.3, 2.3, 2.6, 2.7, 2.8, 2.7, 2.3, 2.0, 2.3, 3.1, 3.7, 4.0, 4.2, 4.2, 4.2, 4.2, 4.2, 4.3, 4.5, 4.7, 5.0, 5.1, 5.1, 5.3, 5.2, 1.8, 1.8, 2.3, 2.5, 2.4, 2.2, 1.8, 1.6, 2.1, 3.0, 3.8, 4.2, 4.3, 4.2, 4.2, 4.2, 4.2, 4.3, 4.5, 4.8, 5.2, 5.4, 5.4, 5.3, 5.3, 1.7, 1.9, 2.3, 2.3, 1.9, 1.5, 1.3, 1.3, 2.0, 3.1, 4.0, 4.4, 4.4, 4.3, 4.2, 4.1, 4.1, 4.3, 4.5, 4.9, 5.4, 5.6, 5.6, 5.4, 5.3, 1.6, 2.0, 2.3, 1.9, 1.2, 0.9, 1.0, 1.4, 2.2, 3.2, 4.1, 4.5, 4.5, 4.2, 4.1, 4.0, 4.1, 4.3, 4.7, 5.1, 5.7, 5.7, 5.6, 5.6, 5.4, 1.7, 2.2, 2.2, 1.6, 0.9, 0.5, 0.9, 1.5, 2.4, 3.4, 4.2, 4.5, 4.4, 4.1, 3.9, 4.0, 4.2, 4.5, 4.9, 4.9, 5.7, 5.7, 5.7, 5.6, 5.6, 2.3, 2.6, 2.5, 1.9, 1.4, 0.8, 0.8, 1.6, 2.7, 3.6, 4.3, 4.5, 4.2, 3.9, 3.9, 4.1, 4.5, 4.8, 4.8, 4.9, 5.5, 5.7, 5.7, 5.7, 5.6, 3.0, 3.1, 2.9, 2.7, 2.4, 1.8, 1.1, 1.6, 2.8, 3.8, 4.4, 4.4, 4.0, 3.8, 4.0, 4.4, 4.8, 4.8, 4.8, 4.8, 4.9, 5.6, 5.7, 5.7, 5.7, 3.3, 3.4, 3.3, 3.3, 3.4, 3.0, 2.1, 1.8, 2.9, 4.0, 4.4, 4.2, 3.9, 3.8, 3.8, 4.4, 4.8, 4.8, 4.8, 4.8, 4.8, 5.4, 5.6, 5.7, 5.7, 3.5, 3.6, 3.5, 3.7, 4.0, 4.0, 3.2, 2.3, 2.9, 4.0, 4.2, 4.2, 3.9, 3.8, 3.8, 4.3, 4.8, 4.8, 4.8, 4.8, 4.8, 4.8, 5.5, 5.7, 5.7, 3.6, 3.6, 3.6, 3.6, 4.0, 4.3, 3.7, 3.4, 3.1, 3.9, 4.2, 4.2, 3.9, 3.8, 3.8, 3.8, 4.6, 4.8, 4.8, 4.8, 4.8, 4.8, 5.3, 5.6, 5.7, 3.6, 3.6, 3.5, 3.5, 4.0, 4.3, 3.8, 3.7, 3.2, 3.9, 4.2, 4.2, 3.9, 3.8, 3.8, 3.8, 4.6, 4.8, 4.8, 4.8, 4.8, 4.8, 4.8, 5.3, 5.6]}, "S:t Ibb|3": {"ny": 29, "nx": 17, "lat0": 55.9114091, "lon0": 12.7019881, "dLat": 8.983e-06, "dLon": 1.6028e-05, "slope": [9.0, 8.5, 7.5, 7.3, 5.9, 4.7, 4.0, 3.9, 4.8, 4.6, 3.7, 3.5, 3.5, 3.4, 3.3, 3.0, 3.0, 9.1, 8.9, 7.3, 7.3, 5.9, 4.8, 4.0, 3.7, 3.7, 3.8, 3.7, 3.5, 3.4, 3.3, 3.0, 3.0, 3.0, 9.1, 8.9, 7.1, 5.8, 4.5, 3.6, 3.1, 3.0, 3.1, 3.2, 3.3, 3.4, 3.4, 3.0, 3.0, 3.0, 3.0, 7.3, 7.2, 5.3, 4.0, 3.2, 2.8, 2.6, 2.6, 2.7, 2.7, 2.7, 2.8, 3.0, 2.9, 3.0, 2.8, 2.8, 6.6, 5.0, 3.5, 2.7, 2.4, 2.3, 2.3, 2.3, 2.3, 2.2, 2.2, 2.3, 2.6, 2.6, 2.8, 2.8, 3.2, 5.1, 3.4, 2.4, 2.1, 2.0, 2.1, 2.1, 2.1, 2.0, 1.9, 1.9, 2.1, 2.3, 2.8, 2.8, 3.1, 4.1, 3.4, 2.5, 1.9, 1.7, 1.8, 1.9, 1.9, 1.8, 1.8, 1.8, 1.8, 2.0, 2.2, 2.9, 3.1, 4.1, 4.1, 2.7, 2.3, 1.8, 1.6, 1.6, 1.6, 1.6, 1.6, 1.6, 1.7, 1.7, 1.9, 2.1, 2.8, 4.0, 4.1, 4.1, 2.6, 2.2, 1.8, 1.6, 1.6, 1.6, 1.5, 1.5, 1.6, 1.6, 1.7, 1.8, 2.0, 2.6, 3.9, 4.0, 4.2, 2.7, 2.3, 1.8, 1.7, 1.7, 1.7, 1.7, 1.7, 1.7, 1.8, 1.8, 1.9, 2.0, 2.3, 3.4, 3.8, 4.4, 2.8, 2.3, 1.9, 1.8, 1.9, 1.9, 2.0, 2.1, 2.1, 2.1, 2.0, 2.0, 2.0, 2.2, 2.7, 4.0, 4.2, 2.8, 2.4, 2.0, 1.9, 1.9, 2.0, 2.1, 2.3, 2.3, 2.2, 2.1, 2.1, 2.2, 2.2, 2.3, 3.0, 3.1, 2.0, 1.9, 2.0, 2.0, 2.0, 2.0, 2.1, 2.2, 2.2, 2.1, 2.1, 2.3, 2.4, 2.3, 2.2, 2.5, 2.7, 1.8, 1.8, 1.9, 2.0, 2.1, 2.0, 2.0, 1.9, 2.0, 2.0, 2.2, 2.4, 2.5, 2.4, 2.3, 2.8, 3.0, 1.6, 1.5, 1.5, 1.8, 2.0, 1.9, 1.9, 1.9, 2.0, 2.2, 2.3, 2.4, 2.3, 2.2, 2.5, 3.3, 3.6, 1.5, 1.5, 1.5, 1.6, 1.8, 1.8, 1.9, 2.0, 2.3, 2.4, 2.4, 2.3, 2.2, 2.2, 2.8, 3.9, 4.4, 1.5, 1.5, 1.6, 1.6, 1.7, 1.8, 1.9, 2.1, 2.3, 2.4, 2.3, 2.2, 2.2, 2.5, 3.4, 4.7, 5.2, 1.9, 1.9, 1.9, 2.0, 1.9, 1.8, 2.0, 2.1, 2.1, 2.1, 2.0, 2.1, 2.3, 2.9, 4.0, 5.0, 5.5, 2.3, 2.4, 2.4, 2.4, 2.0, 1.8, 1.9, 1.9, 1.9, 1.9, 1.9, 2.1, 2.5, 3.1, 4.2, 4.7, 5.0, 4.9, 3.8, 2.7, 2.7, 2.1, 1.6, 1.6, 1.6, 1.7, 1.8, 2.0, 2.2, 2.5, 3.0, 3.9, 4.4, 4.4, 5.8, 5.5, 5.2, 4.1, 2.2, 1.5, 1.4, 1.5, 1.8, 2.0, 2.2, 2.2, 2.3, 2.7, 3.5, 3.9, 3.9, 5.8, 5.8, 5.8, 4.4, 2.3, 1.7, 1.7, 1.8, 2.0, 2.2, 2.2, 2.0, 2.0, 2.4, 3.1, 3.6, 3.6, 5.3, 5.2, 5.2, 4.2, 2.6, 2.1, 2.1, 2.2, 2.2, 2.1, 1.9, 1.7, 1.7, 2.0, 2.8, 3.3, 3.5, 4.9, 4.9, 4.9, 4.3, 3.1, 2.7, 2.6, 2.5, 2.3, 2.0, 1.7, 1.5, 1.5, 1.8, 2.3, 2.6, 3.2, 5.3, 5.3, 5.3, 4.9, 4.0, 3.5, 3.2, 2.9, 2.4, 2.1, 1.8, 1.7, 1.6, 1.7, 2.0, 2.1, 2.4, 5.4, 5.4, 5.4, 5.3, 4.9, 4.5, 4.2, 3.7, 3.2, 2.7, 2.4, 2.1, 1.9, 1.8, 1.8, 2.0, 2.1, 5.4, 5.5, 5.9, 5.9, 5.8, 5.5, 5.3, 5.0, 4.5, 3.9, 3.3, 2.8, 2.5, 2.2, 1.8, 1.8, 2.0, 5.8, 5.9, 6.0, 6.0, 5.9, 5.7, 5.7, 5.8, 5.7, 5.2, 4.4, 3.8, 3.5, 2.5, 2.2, 1.8, 1.8, 6.0, 6.0, 6.0, 5.9, 5.7, 5.7, 5.8, 5.8, 5.7, 5.2, 4.5, 3.8, 3.8, 3.5, 2.6, 2.2, 1.8]}, "S:t Ibb|4": {"ny": 25, "nx": 15, "lat0": 55.9142858, "lon0": 12.7029919, "dLat": 8.983e-06, "dLon": 1.6029e-05, "slope": [2.2, 2.1, 2.1, 2.1, 1.9, 1.3, 0.8, 0.4, 0.3, 0.8, 1.2, 2.1, 2.9, 2.9, 2.8, 2.4, 2.3, 2.1, 2.1, 1.9, 1.3, 0.7, 0.5, 0.8, 1.1, 1.2, 2.0, 2.9, 2.9, 2.6, 2.9, 2.4, 2.3, 2.0, 1.5, 0.9, 0.8, 0.9, 1.0, 1.0, 1.0, 1.7, 2.7, 2.6, 2.5, 3.4, 2.9, 2.3, 1.7, 0.9, 0.7, 0.8, 1.0, 1.0, 0.9, 0.7, 0.6, 1.3, 2.1, 2.0, 3.5, 3.1, 2.1, 1.1, 0.5, 0.6, 0.7, 0.7, 0.7, 0.5, 0.4, 0.3, 0.3, 0.3, 0.3, 3.6, 3.1, 1.7, 0.7, 0.4, 0.4, 0.4, 0.3, 0.3, 0.3, 0.2, 0.2, 0.2, 0.2, 0.2, 3.5, 3.0, 1.5, 0.6, 0.3, 0.2, 0.1, 0.1, 0.2, 0.3, 0.3, 0.3, 0.5, 0.6, 0.6, 3.5, 3.0, 1.5, 0.7, 0.4, 0.2, 0.1, 0.1, 0.3, 0.4, 0.5, 0.7, 1.0, 1.2, 1.3, 3.6, 3.2, 1.8, 0.9, 0.6, 0.5, 0.3, 0.2, 0.4, 0.6, 0.8, 1.1, 1.4, 1.5, 1.5, 3.7, 3.4, 2.0, 1.1, 0.7, 0.6, 0.6, 0.5, 0.6, 0.9, 1.2, 1.5, 1.7, 1.6, 1.3, 3.5, 3.3, 2.1, 1.1, 0.7, 0.7, 0.8, 0.8, 1.0, 1.3, 1.6, 1.9, 1.8, 1.4, 1.8, 3.2, 3.0, 2.0, 1.0, 0.6, 0.7, 0.8, 1.0, 1.2, 1.4, 1.7, 1.9, 1.4, 1.9, 4.4, 2.6, 2.5, 1.7, 0.9, 0.6, 0.7, 0.9, 1.0, 1.1, 1.3, 1.5, 1.4, 0.9, 3.9, 4.1, 1.9, 1.8, 1.3, 0.7, 0.7, 0.8, 0.9, 0.9, 0.9, 1.0, 1.1, 1.0, 2.4, 2.7, 3.8, 0.9, 1.2, 0.9, 0.8, 0.9, 1.1, 1.0, 0.9, 0.9, 0.8, 0.7, 0.8, 1.0, 2.3, 2.7, 0.6, 0.8, 0.8, 1.0, 1.3, 1.3, 1.2, 1.0, 0.8, 0.6, 0.1, 0.2, 0.8, 0.9, 2.3, 1.0, 1.0, 1.1, 1.3, 1.4, 1.3, 1.2, 1.0, 0.7, 0.4, 0.5, 0.5, 0.5, 0.9, 0.9, 1.4, 1.3, 1.4, 1.4, 1.3, 1.1, 0.9, 0.8, 0.6, 0.5, 0.8, 0.8, 0.8, 0.8, 0.8, 1.7, 1.6, 1.6, 1.5, 1.2, 1.0, 0.9, 0.9, 0.8, 0.7, 1.0, 1.1, 1.1, 1.1, 1.1, 2.2, 2.0, 1.8, 1.7, 1.5, 1.4, 1.4, 1.4, 1.3, 1.3, 1.4, 1.5, 1.5, 1.5, 1.5, 2.8, 2.5, 2.3, 2.1, 2.0, 2.0, 2.1, 2.1, 2.1, 2.0, 1.9, 1.9, 1.9, 1.9, 1.9, 3.6, 3.2, 2.9, 2.6, 2.5, 2.6, 2.7, 2.8, 2.8, 2.6, 2.6, 2.1, 1.9, 1.9, 1.9, 4.3, 3.9, 3.5, 3.2, 3.0, 3.0, 3.1, 3.2, 3.2, 2.9, 2.9, 2.9, 2.2, 2.0, 1.9, 4.5, 4.1, 3.6, 3.6, 3.5, 3.4, 3.3, 3.1, 2.9, 2.9, 2.9, 2.9, 2.9, 2.9, 2.3, 4.5, 4.1, 3.7, 3.7, 3.6, 3.4, 3.3, 3.1, 2.9, 2.9, 2.9, 2.9, 2.9, 2.9, 2.9]}, "S:t Ibb|5": {"ny": 30, "nx": 21, "lat0": 55.9111388, "lon0": 12.7028128, "dLat": 8.983e-06, "dLon": 1.6028e-05, "slope": [1.7, 1.7, 1.7, 1.7, 1.7, 1.9, 2.0, 2.2, 2.3, 2.4, 2.4, 2.5, 3.0, 3.6, 4.4, 4.7, 4.7, 4.8, 4.8, 4.6, 4.4, 1.7, 1.7, 1.7, 1.7, 1.7, 1.7, 1.9, 2.0, 2.2, 2.3, 2.2, 2.2, 2.4, 2.8, 3.2, 3.7, 4.4, 4.6, 4.6, 3.5, 3.0, 1.7, 1.7, 1.7, 1.7, 1.7, 1.7, 1.7, 1.9, 2.2, 2.5, 2.5, 2.4, 2.5, 2.6, 2.7, 2.9, 3.1, 3.2, 3.1, 3.0, 2.9, 1.9, 1.9, 1.8, 1.7, 1.7, 1.7, 1.7, 1.8, 2.2, 2.5, 2.7, 2.7, 2.6, 2.6, 2.7, 2.6, 2.6, 2.8, 2.9, 2.9, 2.4, 2.1, 2.1, 2.0, 1.9, 1.9, 1.9, 1.9, 2.0, 2.2, 2.4, 2.6, 2.8, 2.8, 2.8, 2.8, 2.7, 2.6, 2.5, 2.5, 2.3, 2.2, 2.1, 2.1, 2.1, 2.1, 2.0, 2.0, 2.1, 2.1, 2.2, 2.3, 2.5, 2.7, 2.8, 2.8, 2.8, 2.8, 2.7, 2.5, 2.2, 2.1, 2.1, 2.2, 2.1, 2.1, 2.1, 2.1, 2.1, 2.1, 2.1, 2.2, 2.3, 2.4, 2.6, 2.7, 2.8, 2.9, 2.9, 2.8, 2.5, 2.2, 2.0, 2.1, 2.2, 2.2, 2.2, 2.1, 2.1, 2.1, 2.0, 2.0, 2.1, 2.2, 2.3, 2.4, 2.5, 2.7, 2.8, 2.9, 2.8, 2.6, 2.3, 2.2, 2.4, 2.4, 2.2, 2.2, 2.2, 2.2, 2.1, 2.0, 2.0, 2.0, 2.1, 2.2, 2.3, 2.4, 2.5, 2.7, 2.8, 2.8, 2.7, 2.5, 2.5, 2.6, 2.7, 2.5, 2.4, 2.3, 2.3, 2.3, 2.2, 2.1, 2.1, 2.1, 2.1, 2.1, 2.1, 2.2, 2.4, 2.5, 2.6, 2.6, 2.6, 2.6, 2.6, 2.8, 2.8, 2.8, 2.7, 2.7, 2.7, 2.7, 2.6, 2.5, 2.3, 2.1, 2.0, 2.0, 2.0, 2.0, 2.1, 2.3, 2.4, 2.4, 2.4, 2.4, 2.4, 2.5, 2.8, 2.8, 2.9, 3.0, 3.1, 3.1, 3.0, 2.8, 2.5, 2.2, 2.0, 1.9, 1.9, 1.9, 2.0, 2.0, 2.0, 1.9, 2.0, 2.1, 2.2, 2.4, 2.5, 2.8, 3.1, 3.3, 3.4, 3.5, 3.4, 3.1, 2.7, 2.4, 2.2, 2.2, 2.1, 2.1, 1.9, 1.8, 1.8, 2.0, 2.1, 2.1, 2.1, 2.2, 2.6, 2.9, 3.1, 3.3, 3.5, 3.5, 3.4, 3.1, 2.8, 2.6, 2.6, 2.5, 2.4, 2.2, 2.0, 2.0, 2.0, 1.7, 2.0, 2.0, 2.0, 2.3, 2.5, 2.7, 2.8, 3.0, 3.2, 3.2, 3.2, 3.0, 2.9, 2.8, 2.8, 2.8, 2.6, 2.5, 2.4, 2.4, 1.3, 1.5, 1.6, 1.8, 2.0, 2.1, 2.2, 2.3, 2.4, 2.6, 2.8, 3.0, 3.0, 3.0, 3.0, 3.1, 3.1, 3.0, 2.9, 2.5, 2.4, 1.2, 1.2, 1.3, 1.6, 1.7, 1.8, 1.8, 1.9, 1.9, 2.0, 2.4, 2.7, 2.9, 2.9, 2.9, 3.1, 3.1, 3.1, 3.0, 2.9, 2.5, 1.2, 1.2, 1.1, 1.4, 1.6, 1.6, 1.7, 1.8, 1.7, 1.7, 2.0, 2.3, 2.5, 2.6, 2.7, 2.8, 2.9, 2.9, 2.9, 2.9, 2.9, 1.2, 1.2, 1.2, 1.5, 1.6, 1.7, 1.7, 1.8, 1.6, 1.6, 1.7, 1.8, 1.9, 2.1, 2.2, 2.4, 2.6, 2.6, 2.8, 2.9, 2.9, 1.7, 1.4, 1.7, 1.9, 1.9, 1.9, 1.8, 1.7, 1.5, 1.4, 1.4, 1.3, 1.3, 1.4, 1.7, 2.0, 2.2, 2.3, 2.3, 2.8, 2.8, 2.2, 2.0, 2.2, 2.3, 2.2, 2.0, 1.8, 1.5, 1.4, 1.3, 1.3, 1.1, 1.0, 1.1, 1.3, 1.6, 1.7, 2.2, 2.3, 2.3, 2.3, 2.3, 2.4, 2.6, 2.6, 2.4, 2.1, 1.8, 1.5, 1.4, 1.3, 1.4, 1.3, 1.2, 1.1, 1.2, 1.5, 1.5, 1.5, 2.2, 2.1, 2.3, 2.6, 2.6, 2.6, 2.5, 2.4, 2.2, 2.0, 1.7, 1.6, 1.5, 1.5, 1.5, 1.4, 1.2, 1.3, 1.3, 1.4, 1.5, 1.5, 1.5, 2.1, 3.0, 2.6, 2.4, 2.3, 2.1, 2.1, 2.0, 1.9, 1.8, 1.7, 1.6, 1.6, 1.6, 1.6, 1.6, 1.3, 1.3, 1.4, 1.5, 1.5, 1.5, 3.8, 2.9, 2.3, 1.9, 1.7, 1.7, 1.8, 1.9, 1.9, 1.8, 1.8, 1.8, 1.9, 2.2, 2.3, 2.3, 1.4, 1.4, 1.4, 1.5, 1.5, 4.4, 3.8, 2.7, 1.9, 1.4, 1.4, 1.5, 1.6, 1.8, 1.8, 2.0, 2.2, 2.7, 2.9, 2.4, 2.3, 2.3, 2.3, 1.5, 1.6, 1.5, 4.4, 4.4, 4.1, 2.8, 1.9, 1.6, 1.6, 1.8, 2.1, 2.3, 2.7, 3.3, 3.5, 3.0, 2.9, 2.4, 2.3, 2.3, 2.3, 2.3, 1.7, 4.4, 4.6, 4.8, 4.8, 3.8, 3.0, 2.9, 3.1, 3.3, 3.7, 3.9, 3.7, 3.6, 3.6, 3.0, 2.9, 2.4, 2.3, 2.3, 2.3, 2.3, 4.6, 4.8, 5.3, 5.8, 4.7, 3.7, 4.7, 5.3, 4.1, 4.0, 4.1, 3.7, 3.6, 3.6, 3.6, 3.1, 2.9, 2.5, 2.3, 2.3, 2.3, 4.8, 5.3, 5.8, 5.9, 4.7, 4.9, 5.7, 5.9, 4.3, 4.0, 4.1, 4.0, 3.7, 3.6, 3.6, 3.6, 3.1, 2.9, 2.5, 2.3, 2.3]}, "S:t Ibb|6": {"ny": 25, "nx": 18, "lat0": 55.9133083, "lon0": 12.7041001, "dLat": 8.983e-06, "dLon": 1.6028e-05, "slope": [2.6, 2.4, 2.4, 1.8, 1.2, 1.2, 1.3, 1.5, 2.2, 2.1, 2.0, 2.0, 1.8, 1.3, 1.3, 1.3, 1.6, 2.1, 2.6, 2.6, 2.4, 1.9, 1.6, 1.7, 2.0, 2.2, 2.2, 2.1, 1.9, 1.8, 1.3, 1.3, 1.3, 1.6, 2.1, 2.5, 2.6, 2.6, 2.7, 2.3, 2.1, 2.1, 2.3, 2.2, 2.0, 1.7, 1.4, 1.3, 1.3, 1.3, 1.6, 2.1, 2.4, 3.0, 2.1, 2.7, 2.9, 2.6, 2.3, 2.3, 2.3, 2.1, 1.7, 1.3, 1.0, 1.0, 1.3, 1.5, 2.1, 2.4, 3.0, 3.0, 1.9, 2.6, 2.9, 2.8, 2.6, 2.4, 2.2, 1.8, 1.3, 1.0, 0.8, 0.9, 1.3, 2.1, 2.3, 3.0, 3.0, 3.0, 2.0, 2.5, 3.0, 3.0, 2.7, 2.4, 2.0, 1.4, 0.9, 0.7, 0.6, 0.8, 1.3, 2.2, 3.0, 3.0, 3.0, 3.3, 3.1, 2.8, 3.2, 3.1, 2.7, 2.1, 1.6, 1.0, 0.7, 0.6, 0.6, 0.8, 1.3, 2.1, 3.0, 3.1, 3.4, 3.9, 4.7, 3.4, 3.4, 3.2, 2.5, 1.8, 1.2, 0.8, 0.6, 0.6, 0.7, 0.9, 1.3, 1.9, 2.8, 3.2, 3.9, 3.9, 6.5, 4.1, 3.6, 3.1, 2.3, 1.6, 1.1, 0.8, 0.6, 0.7, 0.8, 0.9, 1.3, 1.7, 2.4, 3.7, 3.8, 3.8, 8.0, 4.8, 3.5, 2.8, 2.1, 1.4, 1.0, 0.8, 0.7, 0.7, 0.9, 1.0, 1.2, 1.4, 2.0, 3.2, 3.4, 3.4, 8.9, 5.1, 3.2, 2.4, 1.8, 1.3, 1.1, 1.0, 0.9, 0.9, 1.0, 1.2, 1.2, 1.2, 1.5, 2.7, 2.9, 2.9, 9.3, 5.2, 2.8, 2.0, 1.5, 1.2, 1.1, 1.2, 1.1, 1.2, 1.3, 1.3, 1.2, 1.1, 1.2, 2.2, 2.4, 2.4, 9.3, 5.2, 2.5, 1.7, 1.2, 1.0, 1.0, 1.2, 1.3, 1.4, 1.5, 1.4, 1.2, 1.1, 1.1, 1.9, 2.2, 2.2, 9.2, 5.2, 2.4, 1.5, 1.0, 0.7, 0.7, 0.9, 1.3, 1.5, 1.6, 1.4, 1.2, 1.1, 1.1, 1.8, 2.0, 2.5, 9.2, 5.4, 2.4, 1.5, 1.0, 0.5, 0.4, 0.7, 1.2, 1.6, 1.6, 1.3, 1.1, 1.1, 1.1, 1.7, 2.4, 3.4, 5.0, 4.2, 2.6, 1.5, 0.9, 0.5, 0.3, 0.6, 1.2, 1.6, 1.6, 1.3, 1.0, 1.0, 1.0, 1.6, 3.0, 3.7, 5.0, 5.1, 3.4, 1.7, 1.0, 0.5, 0.4, 0.6, 1.2, 1.6, 1.6, 1.3, 1.0, 0.9, 0.9, 1.3, 2.7, 3.4, 8.5, 8.6, 5.9, 2.6, 1.2, 0.5, 0.4, 0.6, 1.1, 1.5, 1.5, 1.2, 0.9, 0.8, 0.7, 1.1, 2.4, 3.0, 15.7, 16.0, 11.8, 5.6, 2.3, 0.9, 0.5, 0.7, 1.0, 1.3, 1.4, 1.2, 0.9, 0.7, 0.8, 1.1, 2.0, 2.6, 17.3, 17.3, 16.4, 11.5, 5.1, 1.9, 0.9, 0.8, 0.8, 1.0, 1.2, 1.2, 1.0, 0.8, 0.8, 1.0, 1.7, 2.2, 17.3, 17.1, 16.7, 15.2, 9.8, 3.8, 1.5, 0.8, 0.5, 0.7, 1.0, 1.2, 1.1, 0.9, 0.8, 0.9, 1.3, 1.7, 17.1, 16.8, 15.7, 14.3, 12.1, 6.7, 2.2, 0.6, 0.3, 0.7, 1.2, 1.4, 1.3, 1.1, 0.9, 0.9, 0.9, 1.2, 16.8, 15.8, 14.4, 12.5, 10.0, 7.7, 3.4, 1.1, 1.1, 1.4, 1.6, 1.7, 1.6, 1.4, 1.1, 1.0, 1.0, 0.9, 15.9, 14.4, 12.7, 10.1, 8.1, 5.1, 3.5, 1.4, 1.6, 1.7, 1.7, 1.8, 1.8, 1.6, 1.4, 1.3, 1.2, 1.0, 14.5, 12.9, 10.2, 8.3, 5.2, 4.9, 3.8, 1.6, 1.6, 1.6, 1.5, 1.7, 1.7, 1.6, 1.4, 1.3, 1.3, 1.2]}, "S:t Ibb|7": {"ny": 25, "nx": 15, "lat0": 55.912558, "lon0": 12.7057922, "dLat": 8.983e-06, "dLon": 1.6028e-05, "slope": [5.1, 4.9, 4.8, 4.5, 4.4, 4.6, 4.9, 4.9, 4.9, 4.8, 4.9, 5.1, 5.1, 5.1, 5.1, 5.2, 5.1, 4.8, 4.5, 4.3, 4.4, 4.6, 4.7, 4.8, 4.9, 5.1, 5.1, 5.1, 5.1, 5.1, 5.3, 5.2, 4.8, 4.6, 4.5, 4.5, 4.6, 4.8, 4.9, 5.1, 5.1, 5.1, 5.1, 5.2, 5.2, 5.4, 5.2, 5.0, 4.8, 4.6, 4.5, 4.4, 4.6, 5.1, 5.1, 5.1, 5.2, 5.2, 5.2, 5.4, 5.4, 5.4, 5.2, 4.9, 4.6, 4.4, 4.2, 4.2, 4.6, 4.7, 5.2, 5.2, 5.4, 5.4, 6.1, 5.6, 5.6, 5.3, 4.8, 4.4, 4.2, 4.0, 3.9, 4.2, 5.1, 5.1, 5.3, 6.0, 6.1, 6.1, 5.7, 5.6, 5.2, 4.5, 4.1, 3.9, 3.7, 3.6, 3.9, 4.7, 4.9, 6.0, 6.1, 6.1, 6.1, 6.0, 5.5, 4.9, 4.1, 3.7, 3.6, 3.4, 3.4, 3.6, 4.3, 5.8, 6.0, 5.9, 6.1, 6.1, 6.0, 5.7, 4.7, 3.8, 3.4, 3.2, 3.2, 3.1, 3.4, 4.0, 5.2, 5.3, 5.6, 6.1, 6.2, 5.8, 5.7, 4.8, 3.7, 3.1, 2.9, 2.8, 2.8, 3.1, 3.6, 4.6, 5.0, 6.0, 6.2, 6.4, 5.7, 5.0, 4.6, 3.6, 2.8, 2.6, 2.5, 2.6, 2.8, 3.2, 4.0, 5.7, 6.1, 6.3, 6.9, 5.0, 3.7, 3.2, 3.1, 2.5, 2.2, 2.2, 2.3, 2.5, 2.9, 3.5, 4.8, 5.6, 6.7, 7.0, 3.1, 2.8, 2.7, 2.7, 2.0, 1.8, 2.0, 2.1, 2.3, 2.6, 3.1, 4.1, 6.1, 6.7, 6.7, 2.7, 2.7, 2.7, 2.7, 1.6, 1.3, 1.7, 2.1, 2.2, 2.4, 2.8, 3.5, 5.0, 5.5, 5.4, 2.7, 2.7, 1.6, 1.0, 0.8, 1.1, 1.6, 2.1, 2.3, 2.4, 2.7, 3.1, 4.1, 4.4, 4.5, 4.0, 4.1, 2.1, 0.9, 0.9, 1.1, 1.7, 2.1, 2.3, 2.4, 2.6, 2.9, 3.5, 3.8, 4.1, 4.4, 4.4, 4.1, 4.0, 2.5, 1.4, 1.8, 2.2, 2.4, 2.5, 2.6, 2.7, 3.1, 3.8, 4.1, 4.4, 4.4, 4.4, 4.4, 3.0, 1.8, 2.0, 2.2, 2.4, 2.5, 2.5, 2.6, 2.8, 3.3, 3.5, 4.9, 4.9, 4.9, 4.9, 3.5, 2.1, 2.1, 2.3, 2.4, 2.5, 2.5, 2.5, 2.7, 3.1, 3.2, 5.4, 5.4, 5.4, 5.4, 4.0, 2.4, 2.2, 2.3, 2.4, 2.4, 2.4, 2.4, 2.7, 3.0, 3.1, 5.6, 5.6, 5.6, 5.7, 4.5, 2.8, 2.4, 2.4, 2.4, 2.4, 2.3, 2.3, 2.6, 2.9, 3.1, 5.7, 5.7, 5.7, 5.7, 4.8, 3.3, 2.9, 2.6, 2.5, 2.4, 2.3, 2.3, 2.6, 2.9, 3.0, 5.7, 5.7, 5.2, 4.5, 4.4, 4.1, 3.6, 3.1, 2.8, 2.6, 2.4, 2.5, 2.8, 3.1, 3.1, 5.6, 5.4, 5.3, 5.2, 5.3, 5.1, 4.4, 3.8, 3.3, 3.0, 2.9, 3.1, 3.3, 3.2, 3.1, 5.4, 5.3, 5.3, 5.3, 5.3, 5.1, 4.9, 5.0, 4.2, 3.8, 3.7, 3.9, 3.7, 3.3, 3.2]}, "S:t Ibb|8": {"ny": 24, "nx": 19, "lat0": 55.9153161, "lon0": 12.7075721, "dLat": 8.983e-06, "dLon": 1.6029e-05, "slope": [2.2, 1.7, 1.7, 1.7, 1.7, 1.7, 1.5, 1.3, 1.2, 1.0, 1.1, 1.5, 1.8, 2.2, 2.5, 2.5, 2.4, 2.4, 2.4, 3.0, 2.7, 2.3, 1.7, 1.7, 1.7, 1.7, 1.5, 1.2, 1.0, 0.9, 1.0, 1.5, 2.2, 2.5, 2.5, 2.4, 2.4, 2.2, 3.3, 3.3, 3.1, 2.8, 2.4, 1.7, 1.7, 1.5, 1.3, 1.2, 1.1, 1.0, 1.2, 1.6, 2.1, 2.4, 2.4, 2.2, 2.0, 3.3, 3.3, 3.3, 3.3, 3.1, 2.9, 2.4, 1.4, 1.3, 1.3, 1.2, 1.2, 1.2, 1.2, 1.5, 2.1, 2.3, 2.1, 2.1, 2.9, 3.0, 3.3, 3.3, 3.3, 3.3, 2.5, 1.2, 1.2, 1.3, 1.2, 1.2, 1.1, 1.0, 1.0, 1.5, 2.2, 2.5, 2.5, 2.6, 2.7, 2.8, 2.8, 2.7, 2.7, 2.0, 0.9, 1.2, 1.3, 1.3, 1.3, 1.2, 1.0, 0.8, 1.1, 1.7, 2.3, 2.5, 2.5, 2.6, 2.6, 2.6, 2.6, 2.3, 1.4, 0.8, 1.2, 1.4, 1.4, 1.4, 1.3, 1.1, 1.0, 1.0, 1.3, 1.9, 2.3, 2.3, 2.3, 2.2, 2.6, 2.6, 2.1, 0.9, 1.0, 1.3, 1.3, 1.2, 1.2, 1.2, 1.2, 1.1, 1.1, 1.2, 1.6, 2.0, 2.2, 2.2, 2.1, 2.0, 1.9, 1.3, 0.6, 1.1, 1.2, 1.1, 0.9, 0.9, 0.9, 1.0, 1.0, 0.9, 1.0, 1.4, 1.8, 2.2, 2.2, 2.2, 2.0, 1.5, 0.5, 0.7, 0.9, 0.9, 0.8, 0.8, 0.7, 0.7, 0.7, 0.7, 0.7, 0.8, 1.1, 1.3, 1.8, 2.2, 2.2, 2.0, 0.9, 0.4, 0.8, 0.8, 0.8, 0.8, 0.7, 0.6, 0.4, 0.4, 0.3, 0.3, 0.6, 1.1, 1.1, 1.4, 1.6, 1.6, 1.4, 0.7, 0.7, 0.9, 0.8, 0.8, 0.8, 0.7, 0.5, 0.3, 0.2, 0.1, 0.1, 0.6, 1.2, 1.2, 1.4, 1.4, 1.2, 0.9, 0.8, 1.0, 1.0, 1.0, 0.9, 0.8, 0.7, 0.4, 0.1, 0.2, 0.2, 0.2, 0.8, 1.5, 1.5, 1.4, 1.4, 1.0, 1.0, 1.1, 1.2, 1.2, 1.1, 0.9, 0.7, 0.5, 0.2, 0.1, 0.3, 0.2, 0.3, 1.2, 1.7, 1.7, 1.7, 1.4, 1.3, 1.3, 1.3, 1.2, 1.3, 1.1, 0.8, 0.4, 0.2, 0.2, 0.3, 0.3, 0.1, 0.8, 1.7, 1.7, 1.8, 2.0, 1.8, 1.7, 1.5, 1.3, 1.2, 1.2, 1.0, 0.4, 0.1, 0.2, 0.4, 0.4, 0.2, 0.6, 1.6, 2.2, 2.1, 2.1, 2.2, 2.1, 1.9, 1.5, 1.2, 1.1, 1.2, 0.9, 0.4, 0.3, 0.4, 0.4, 0.2, 0.6, 1.7, 2.6, 2.6, 2.4, 2.1, 2.4, 2.2, 1.8, 1.5, 1.3, 1.3, 1.3, 1.1, 0.6, 0.5, 0.4, 0.2, 0.6, 1.8, 3.1, 3.6, 3.5, 3.5, 2.4, 2.5, 2.1, 1.7, 1.3, 1.2, 1.3, 1.4, 1.2, 0.8, 0.5, 0.3, 0.4, 1.5, 3.2, 4.2, 4.3, 3.6, 3.5, 3.5, 2.1, 1.9, 1.5, 1.2, 1.1, 1.2, 1.3, 1.2, 0.8, 0.4, 0.3, 1.1, 2.5, 4.1, 4.3, 4.3, 4.3, 3.7, 3.5, 1.8, 1.8, 1.5, 1.2, 1.1, 1.2, 1.3, 1.1, 0.8, 0.4, 0.6, 1.5, 3.1, 3.3, 4.1, 4.3, 4.3, 4.3, 3.7, 1.8, 1.6, 1.5, 1.5, 1.4, 1.4, 1.4, 1.2, 0.8, 0.5, 0.7, 1.6, 1.8, 3.0, 3.3, 4.1, 4.3, 4.3, 4.3, 1.6, 1.5, 1.5, 1.6, 1.5, 1.8, 1.7, 1.5, 1.0, 0.6, 0.6, 1.6, 1.8, 1.8, 2.9, 3.3, 4.0, 4.3, 4.3, 1.5, 1.5, 1.6, 1.6, 1.8, 1.9, 1.8, 1.5, 1.0, 0.6, 0.6, 1.5, 1.8, 1.8, 1.8, 2.9, 3.3, 3.9, 4.3]}, "S:t Ibb|9": {"ny": 15, "nx": 31, "lat0": 55.915999, "lon0": 12.7041662, "dLat": 8.983e-06, "dLon": 1.603e-05, "slope": [2.3, 2.2, 2.0, 1.7, 2.0, 2.7, 2.3, 3.2, 3.5, 3.4, 3.2, 3.2, 3.6, 4.4, 4.7, 5.9, 5.8, 5.4, 4.8, 4.8, 3.9, 1.9, 1.0, 0.8, 1.0, 1.6, 1.4, 0.8, 0.8, 0.8, 0.8, 3.1, 2.3, 2.3, 2.5, 2.0, 3.1, 2.9, 2.7, 2.4, 2.0, 1.8, 1.8, 2.3, 3.3, 4.6, 5.7, 5.7, 5.4, 4.8, 4.5, 3.0, 1.9, 1.0, 0.8, 1.0, 1.6, 1.4, 0.8, 0.8, 0.8, 1.0, 3.9, 3.2, 2.4, 3.1, 2.8, 2.7, 2.1, 1.5, 1.0, 0.8, 0.9, 1.2, 1.7, 2.3, 3.0, 4.0, 4.9, 5.2, 4.7, 4.4, 3.1, 2.0, 1.0, 0.8, 1.0, 1.9, 1.4, 0.8, 0.8, 0.9, 1.0, 4.0, 4.0, 3.8, 3.4, 2.5, 1.6, 0.9, 0.6, 0.6, 0.7, 0.9, 1.2, 1.6, 1.8, 2.0, 2.4, 3.0, 3.7, 4.0, 3.8, 3.2, 2.5, 1.8, 1.7, 1.8, 2.5, 1.8, 1.1, 0.9, 1.0, 1.2, 4.8, 4.8, 4.3, 2.8, 1.5, 0.7, 0.6, 0.7, 0.9, 1.0, 1.1, 1.4, 1.7, 1.7, 1.6, 1.6, 1.8, 2.1, 2.6, 3.0, 3.2, 3.3, 3.4, 3.3, 2.9, 2.5, 2.0, 1.3, 1.1, 1.2, 2.0, 5.1, 4.8, 3.4, 1.8, 0.7, 0.6, 0.9, 1.1, 1.2, 1.2, 1.3, 1.5, 1.8, 1.8, 1.7, 1.4, 1.4, 1.4, 1.6, 1.7, 1.8, 2.0, 2.3, 2.3, 2.1, 1.7, 1.2, 1.1, 1.6, 2.0, 2.6, 4.9, 3.8, 2.3, 1.0, 0.4, 0.9, 1.2, 1.3, 1.3, 1.2, 1.3, 1.6, 2.0, 2.1, 1.9, 1.6, 1.5, 1.4, 1.4, 1.3, 1.1, 1.1, 1.2, 1.2, 1.1, 0.9, 0.9, 1.5, 2.3, 2.7, 2.7, 4.5, 2.9, 1.6, 0.5, 0.5, 1.1, 1.4, 1.5, 1.3, 1.3, 1.5, 2.0, 2.5, 2.6, 2.4, 2.1, 2.0, 2.0, 2.1, 2.0, 1.9, 1.8, 1.8, 1.6, 1.4, 1.3, 1.5, 1.9, 2.5, 2.8, 2.8, 3.7, 2.2, 1.1, 0.3, 0.7, 1.2, 1.5, 1.6, 1.5, 1.6, 2.1, 2.8, 3.5, 3.7, 3.4, 3.2, 3.2, 3.3, 3.5, 3.5, 3.4, 3.2, 2.9, 2.5, 2.1, 1.7, 1.6, 1.9, 2.5, 2.7, 2.7, 2.8, 1.7, 1.0, 0.6, 0.8, 1.2, 1.6, 1.7, 1.8, 2.2, 3.1, 4.2, 5.2, 5.4, 5.2, 4.9, 4.6, 4.7, 4.8, 4.6, 4.4, 4.2, 3.8, 3.1, 2.3, 1.6, 1.2, 1.7, 2.3, 2.4, 2.6, 2.5, 1.4, 0.9, 0.8, 0.9, 1.2, 1.5, 1.7, 2.1, 2.9, 4.3, 6.0, 6.9, 6.8, 6.0, 6.0, 4.7, 4.7, 4.7, 4.1, 4.1, 4.0, 3.7, 2.6, 2.1, 1.5, 1.3, 1.7, 2.1, 2.2, 2.4, 1.6, 1.2, 0.9, 0.8, 0.9, 1.1, 1.4, 1.7, 2.3, 3.6, 5.4, 7.0, 7.3, 6.9, 6.1, 6.0, 4.9, 4.6, 4.1, 4.1, 4.1, 4.0, 3.2, 1.8, 2.1, 2.0, 1.8, 2.1, 2.1, 2.2, 2.2, 1.0, 1.0, 0.7, 0.6, 0.6, 0.7, 1.1, 1.5, 2.4, 4.0, 4.5, 6.8, 7.3, 6.9, 6.1, 6.0, 6.0, 4.4, 4.1, 4.1, 4.1, 3.5, 1.9, 1.7, 2.0, 2.0, 1.8, 2.1, 2.1, 2.1, 2.1, 1.0, 0.8, 0.5, 0.5, 0.4, 0.6, 1.1, 1.7, 2.8, 3.2, 4.2, 6.7, 7.3, 7.3, 6.2, 6.0, 6.0, 4.4, 4.1, 4.1, 4.1, 2.1, 1.7, 1.7, 2.0, 2.0, 1.8, 2.1, 2.1, 2.1, 2.1, 0.8, 0.6, 0.5, 0.4, 0.4, 0.6, 1.1, 1.8, 2.8, 3.1, 3.2, 4.3, 6.6, 7.3, 6.3, 6.0, 6.0, 4.5, 4.1, 4.1, 4.1, 2.2, 1.7, 1.7, 2.0, 2.0, 1.8, 2.0, 2.1, 2.1, 2.1]}}}